[{"id":"235172","url":"https:\/\/fragdenstaat.de\/anfrage\/klimaschutz-und-klimaanpassungskonzepte-7\/","plz":"25813","city":"Husum","lat":54.48389235,"lon":9.0469017647,"geoaddr":"25813 Husum Deutschland","status":"solved"},{"id":"235490","url":"https:\/\/fragdenstaat.de\/anfrage\/klimaschutz-und-klimaanpassungskonzepte-325\/","plz":"53705","city":"Siegburg","lat":50.7928332,"lon":7.2070774,"geoaddr":"53705 Siegburg Deutschland","status":"solved"},{"id":"235458","url":"https:\/\/fragdenstaat.de\/anfrage\/klimaschutz-und-klimaanpassungskonzepte-293\/","plz":"78614","city":"Rottweil","lat":8.6251283,"lon":48.165531,"geoaddr":"78614 Rottweil Deutschland","status":"solved"},{"id":"235261","url":"https:\/\/fragdenstaat.de\/anfrage\/klimaschutz-und-klimaanpassungskonzepte-96\/","plz":"54550","city":"Daun,","lat":50.199151,"lon":6.8209302243,"geoaddr":"54550 Daun, Deutschland","status":"failed"},{"id":"235428","url":"https:\/\/fragdenstaat.de\/anfrage\/klimaschutz-und-klimaanpassungskonzepte-263\/","plz":"01651","city":"Mei\u00dfen","lat":51.1630871,"lon":13.4704939,"geoaddr":"01651 Mei\u00dfen Deutschland","status":"failed"},{"id":"235545","url":"https:\/\/fragdenstaat.de\/anfrage\/klimaschutz-und-klimaanpassungskonzepte-380\/","plz":"80313","city":"M\u00fcnchen","lat":48.13452,"lon":11.571,"geoaddr":"80313 M\u00fcnchen Deutschland","status":"solved"},{"id":"235339","url":"https:\/\/fragdenstaat.de\/anfrage\/klimaschutz-und-klimaanpassungskonzepte-174\/","plz":"34576","city":"Homberg","lat":51.0352084,"lon":9.4014803871,"geoaddr":"34576 Homberg Deutschland","status":"failed"},{"id":"235528","url":"https:\/\/fragdenstaat.de\/anfrage\/klimaschutz-und-klimaanpassungskonzepte-363\/","plz":"91124","city":"Schwabach","lat":49.329166666,"lon":11.020833333,"geoaddr":"91124 Schwabach Deutschland","status":"solved"},{"id":"235493","url":"https:\/\/fragdenstaat.de\/anfrage\/klimaschutz-und-klimaanpassungskonzepte-328\/","plz":"66406","city":"Homburg","lat":49.3181673,"lon":7.3340336,"geoaddr":"66406 Homburg Deutschland","status":"solved"},{"id":"235293","url":"https:\/\/fragdenstaat.de\/anfrage\/klimaschutz-und-klimaanpassungskonzepte-128\/","plz":"07973","city":"Greiz","lat":50.65521525,"lon":12.2023825348,"geoaddr":"07973 Greiz Deutschland","status":"failed"},{"id":"235459","url":"https:\/\/fragdenstaat.de\/anfrage\/klimaschutz-und-klimaanpassungskonzepte-294\/","plz":"01782","city":"Pirna","lat":50.9616923,"lon":13.9386643,"geoaddr":"01782 Pirna Deutschland","status":"failed"},{"id":"235252","url":"https:\/\/fragdenstaat.de\/anfrage\/klimaschutz-und-klimaanpassungskonzepte-87\/","plz":"24768","city":"Rendsburg","lat":54.29754715,"lon":9.6693530806,"geoaddr":"24768 Rendsburg Deutschland","status":"solved"},{"id":"235264","url":"https:\/\/fragdenstaat.de\/anfrage\/klimaschutz-und-klimaanpassungskonzepte-98\/","plz":"46483","city":"Wesel","lat":51.680011,"lon":6.59749,"geoaddr":"46483 Wesel Deutschland","status":"solved"},{"id":"235543","url":"https:\/\/fragdenstaat.de\/anfrage\/klimaschutz-und-klimaanpassungskonzepte-378\/","plz":"67059","city":"Ludwigshafen","lat":49.4853917,"lon":8.4434193,"geoaddr":"67059 Ludwigshafen Deutschland","status":"solved"},{"id":"235456","url":"https:\/\/fragdenstaat.de\/anfrage\/klimaschutz-und-klimaanpassungskonzepte-291\/","plz":"91152","city":"Roth","lat":50.3088002,"lon":6.3835044,"geoaddr":"91152 Roth Deutschland","status":"failed"},{"id":"235500","url":"https:\/\/fragdenstaat.de\/anfrage\/klimaschutz-und-klimaanpassungskonzepte-335\/","plz":"44777","city":"Bochum","lat":51.48289975,"lon":7.214555422,"geoaddr":"44777 Bochum Deutschland","status":"solved"},{"id":"235199","url":"https:\/\/fragdenstaat.de\/anfrage\/klimaschutz-und-klimaanpassungskonzepte-34\/","plz":"37671","city":"H\u00f6xter","lat":51.780529,"lon":9.345161,"geoaddr":"37671 H\u00f6xter Deutschland","status":"solved"},{"id":"235237","url":"https:\/\/fragdenstaat.de\/anfrage\/klimaschutz-und-klimaanpassungskonzepte-72\/","plz":"54634","city":"Bitburg,","lat":49.9684167,"lon":6.5232311909,"geoaddr":"54634 Bitburg, Deutschland","status":"failed"},{"id":"235404","url":"https:\/\/fragdenstaat.de\/anfrage\/klimaschutz-und-klimaanpassungskonzepte-239\/","plz":"73008","city":"G\u00f6ppingen","lat":9.6541116,"lon":48.7031377,"geoaddr":"73008 G\u00f6ppingen Deutschland","status":"solved"},{"id":"235539","url":"https:\/\/fragdenstaat.de\/anfrage\/klimaschutz-und-klimaanpassungskonzepte-374\/","plz":"85049","city":"Ingolstadt","lat":48.763222,"lon":11.424992,"geoaddr":"85049 Ingolstadt Deutschland","status":"solved"},{"id":"235471","url":"https:\/\/fragdenstaat.de\/anfrage\/klimaschutz-und-klimaanpassungskonzepte-306\/","plz":"79744","city":"Waldshut-Tiengen","lat":8.2408579,"lon":47.6281754,"geoaddr":"79744 Waldshut-Tiengen Deutschland","status":"failed"},{"id":"235515","url":"https:\/\/fragdenstaat.de\/anfrage\/klimaschutz-und-klimaanpassungskonzepte-350\/","plz":"74024","city":"Heilbronn","lat":9.218655,"lon":49.142291,"geoaddr":"74024 Heilbronn Deutschland","status":"failed"},{"id":"235345","url":"https:\/\/fragdenstaat.de\/anfrage\/klimaschutz-und-klimaanpassungskonzepte-180\/","plz":"94315","city":"Straubing","lat":48.8819801,"lon":12.569716,"geoaddr":"94315 Straubing Deutschland","status":"solved"},{"id":"235184","url":"https:\/\/fragdenstaat.de\/anfrage\/klimaschutz-und-klimaanpassungskonzepte-19\/","plz":"60311","city":"Frankfurt","lat":50.11056755,"lon":8.681612963,"geoaddr":"60311 Frankfurt Deutschland","status":"failed"},{"id":"235182","url":"https:\/\/fragdenstaat.de\/anfrage\/klimaschutz-und-klimaanpassungskonzepte-16\/","plz":"04916","city":"Herzberg","lat":51.6934609,"lon":13.2375496,"geoaddr":"04916 Herzberg Deutschland","status":"failed"},{"id":"235305","url":"https:\/\/fragdenstaat.de\/anfrage\/klimaschutz-und-klimaanpassungskonzepte-140\/","plz":"37603","city":"Holzminden","lat":51.82907325,"lon":9.4513008553,"geoaddr":"37603 Holzminden Deutschland","status":"failed"},{"id":"235236","url":"https:\/\/fragdenstaat.de\/anfrage\/klimaschutz-und-klimaanpassungskonzepte-71\/","plz":"67292","city":"Kirchheimbolanden,","lat":49.66555905,"lon":8.0148209472,"geoaddr":"67292 Kirchheimbolanden, Deutschland","status":"failed"},{"id":"235238","url":"https:\/\/fragdenstaat.de\/anfrage\/klimaschutz-und-klimaanpassungskonzepte-73\/","plz":"53879","city":"Euskirchen","lat":50.6697975,"lon":6.7837009605,"geoaddr":"53879 Euskirchen Deutschland","status":"solved"},{"id":"235512","url":"https:\/\/fragdenstaat.de\/anfrage\/klimaschutz-und-klimaanpassungskonzepte-347\/","plz":"07545","city":"Gera","lat":50.87594145,"lon":12.0841965163,"geoaddr":"07545 Gera Deutschland","status":"failed"},{"id":"235265","url":"https:\/\/fragdenstaat.de\/anfrage\/klimaschutz-und-klimaanpassungskonzepte-100\/","plz":"39104","city":"Magdeburg,","lat":52.13133305,"lon":11.6403139798,"geoaddr":"39104 Magdeburg, Deutschland","status":"failed"},{"id":"235377","url":"https:\/\/fragdenstaat.de\/anfrage\/klimaschutz-und-klimaanpassungskonzepte-212\/","plz":"83423","city":"Bad Reichenhall","lat":47.7222676,"lon":12.8760923,"geoaddr":"83423 Bad Reichenhall Deutschland","status":"solved"},{"id":"235372","url":"https:\/\/fragdenstaat.de\/anfrage\/klimaschutz-und-klimaanpassungskonzepte-207\/","plz":"97685","city":"Bad Kissingen","lat":50.1985698,"lon":10.0746833,"geoaddr":"97685 Bad Kissingen Deutschland","status":"failed"},{"id":"235366","url":"https:\/\/fragdenstaat.de\/anfrage\/klimaschutz-und-klimaanpassungskonzepte-200\/","plz":"15907","city":"L\u00fcbben","lat":51.94093175,"lon":13.8995820253,"geoaddr":"15907 L\u00fcbben Deutschland","status":"failed"},{"id":"235467","url":"https:\/\/fragdenstaat.de\/anfrage\/klimaschutz-und-klimaanpassungskonzepte-302\/","plz":"72009","city":"T\u00fcbingen","lat":9.0535531,"lon":48.5236164,"geoaddr":"72009 T\u00fcbingen Deutschland","status":"solved"},{"id":"235301","url":"https:\/\/fragdenstaat.de\/anfrage\/klimaschutz-und-klimaanpassungskonzepte-136\/","plz":"98646","city":"Hildburghausen","lat":50.4240921,"lon":10.7235795,"geoaddr":"98646 Hildburghausen Deutschland","status":"failed"},{"id":"235183","url":"https:\/\/fragdenstaat.de\/anfrage\/klimaschutz-und-klimaanpassungskonzepte-18\/","plz":"58332","city":"Schwelm","lat":51.2848411,"lon":7.2982912,"geoaddr":"58332 Schwelm Deutschland","status":"failed"},{"id":"235320","url":"https:\/\/fragdenstaat.de\/anfrage\/klimaschutz-und-klimaanpassungskonzepte-155\/","plz":"31582","city":"Nienburg","lat":52.6410849,"lon":9.2181918,"geoaddr":"31582 Nienburg Deutschland","status":"failed"},{"id":"235560","url":"https:\/\/fragdenstaat.de\/anfrage\/klimaschutz-und-klimaanpassungskonzepte-395\/","plz":"66482","city":"Zweibr\u00fccken,","lat":49.25088395,"lon":7.3603602955,"geoaddr":"66482 Zweibr\u00fccken, Deutschland","status":"solved"},{"id":"235447","url":"https:\/\/fragdenstaat.de\/anfrage\/klimaschutz-und-klimaanpassungskonzepte-283\/","plz":"76408","city":"Rastatt","lat":8.2088088,"lon":48.8574209,"geoaddr":"76408 Rastatt Deutschland","status":"failed"},{"id":"235429","url":"https:\/\/fragdenstaat.de\/anfrage\/klimaschutz-und-klimaanpassungskonzepte-264\/","plz":"83711","city":"Miesbach","lat":47.790025,"lon":11.8335417,"geoaddr":"83711 Miesbach Deutschland","status":"solved"},{"id":"235405","url":"https:\/\/fragdenstaat.de\/anfrage\/klimaschutz-und-klimaanpassungskonzepte-240\/","plz":"02806","city":"G\u00f6rlitz","lat":51.1563185,"lon":14.991018,"geoaddr":"02806 G\u00f6rlitz Deutschland","status":"failed"},{"id":"235326","url":"https:\/\/fragdenstaat.de\/anfrage\/klimaschutz-und-klimaanpassungskonzepte-161\/","plz":"27793","city":"Wildeshausen","lat":52.9043769,"lon":8.4438544507,"geoaddr":"27793 Wildeshausen Deutschland","status":"solved"},{"id":"235328","url":"https:\/\/fragdenstaat.de\/anfrage\/klimaschutz-und-klimaanpassungskonzepte-163\/","plz":"27711","city":"Osterholz-Scharmbeck","lat":53.2273038,"lon":8.8049938069,"geoaddr":"27711 Osterholz-Scharmbeck Deutschland","status":"solved"},{"id":"235427","url":"https:\/\/fragdenstaat.de\/anfrage\/klimaschutz-und-klimaanpassungskonzepte-262\/","plz":"17033","city":"Neubrandenburg","lat":53.902062,"lon":13.04792,"geoaddr":"17033 Neubrandenburg Deutschland","status":"failed"},{"id":"235284","url":"https:\/\/fragdenstaat.de\/anfrage\/klimaschutz-und-klimaanpassungskonzepte-119\/","plz":"49716","city":"Meppen","lat":52.69510215,"lon":7.3060282936,"geoaddr":"49716 Meppen Deutschland","status":"solved"},{"id":"235356","url":"https:\/\/fragdenstaat.de\/anfrage\/klimaschutz-und-klimaanpassungskonzepte-191\/","plz":"36433","city":"Bad Salzungen","lat":50.807558,"lon":10.232461,"geoaddr":"36433 Bad Salzungen Deutschland","status":"failed"},{"id":"235409","url":"https:\/\/fragdenstaat.de\/anfrage\/klimaschutz-und-klimaanpassungskonzepte-244\/","plz":"74064","city":"Heilbronn","lat":49.142291,"lon":9.218655,"geoaddr":"74064 Heilbronn Deutschland","status":"solved"},{"id":"235273","url":"https:\/\/fragdenstaat.de\/anfrage\/klimaschutz-und-klimaanpassungskonzepte-108\/","plz":"06366","city":"K\u00f6then","lat":51.7321538,"lon":11.9776131,"geoaddr":"06366 K\u00f6then Deutschland","status":"failed"},{"id":"235466","url":"https:\/\/fragdenstaat.de\/anfrage\/klimaschutz-und-klimaanpassungskonzepte-301\/","plz":"83276","city":"Traunstein","lat":47.8701474,"lon":12.6423403,"geoaddr":"83276 Traunstein Deutschland","status":"failed"},{"id":"235267","url":"https:\/\/fragdenstaat.de\/anfrage\/klimaschutz-und-klimaanpassungskonzepte-102\/","plz":"19053","city":"Schwerin","lat":53.632916,"lon":11.408539,"geoaddr":"19053 Schwerin Deutschland","status":"solved"},{"id":"235280","url":"https:\/\/fragdenstaat.de\/anfrage\/klimaschutz-und-klimaanpassungskonzepte-115\/","plz":"27474","city":"Cuxhaven","lat":53.8656802,"lon":8.6784867822,"geoaddr":"27474 Cuxhaven Deutschland","status":"failed"},{"id":"235227","url":"https:\/\/fragdenstaat.de\/anfrage\/klimaschutz-und-klimaanpassungskonzepte-62\/","plz":"57610","city":"Altenkirchen,","lat":50.68844965,"lon":7.6503259169,"geoaddr":"57610 Altenkirchen, Deutschland","status":"failed"},{"id":"235365","url":"https:\/\/fragdenstaat.de\/anfrage\/klimaschutz-und-klimaanpassungskonzepte-201\/","plz":"51643","city":"Gummersbach","lat":51.029968,"lon":7.570438,"geoaddr":"51643 Gummersbach Deutschland","status":"solved"},{"id":"235235","url":"https:\/\/fragdenstaat.de\/anfrage\/klimaschutz-und-klimaanpassungskonzepte-70\/","plz":"65307","city":"Bad Schwalbach","lat":50.1481939,"lon":8.0736899,"geoaddr":"65307 Bad Schwalbach Deutschland","status":"solved"},{"id":"235482","url":"https:\/\/fragdenstaat.de\/anfrage\/klimaschutz-und-klimaanpassungskonzepte-317\/","plz":"63065","city":"Offenbach","lat":50.10615955,"lon":8.76039644,"geoaddr":"63065 Offenbach Deutschland","status":"failed"},{"id":"235185","url":"https:\/\/fragdenstaat.de\/anfrage\/klimaschutz-und-klimaanpassungskonzepte-20\/","plz":"23539","city":"L\u00fcbeck,","lat":53.8712393,"lon":10.6884796,"geoaddr":"23539 L\u00fcbeck, Deutschland","status":"solved"},{"id":"235344","url":"https:\/\/fragdenstaat.de\/anfrage\/klimaschutz-und-klimaanpassungskonzepte-179\/","plz":"39576","city":"Stendal,","lat":52.6001127,"lon":11.8638746159,"geoaddr":"39576 Stendal, Deutschland","status":"failed"},{"id":"235410","url":"https:\/\/fragdenstaat.de\/anfrage\/klimaschutz-und-klimaanpassungskonzepte-245\/","plz":"95004","city":"Hof","lat":50.3219015,"lon":11.9178807,"geoaddr":"95004 Hof Deutschland","status":"failed"},{"id":"235214","url":"https:\/\/fragdenstaat.de\/anfrage\/klimaschutz-und-klimaanpassungskonzepte-49\/","plz":"52348","city":"D\u00fcren","lat":50.8052794,"lon":6.4870189511,"geoaddr":"52348 D\u00fcren Deutschland","status":"failed"},{"id":"235484","url":"https:\/\/fragdenstaat.de\/anfrage\/klimaschutz-und-klimaanpassungskonzepte-319\/","plz":"16816","city":"Neuruppin","lat":52.9265578,"lon":12.8100738,"geoaddr":"16816 Neuruppin Deutschland","status":"failed"},{"id":"235192","url":"https:\/\/fragdenstaat.de\/anfrage\/klimaschutz-und-klimaanpassungskonzepte-27\/","plz":"47051","city":"Duisburg","lat":51.43536945,"lon":6.7609397854,"geoaddr":"47051 Duisburg Deutschland","status":"solved"},{"id":"235542","url":"https:\/\/fragdenstaat.de\/anfrage\/klimaschutz-und-klimaanpassungskonzepte-377\/","plz":"76829","city":"Landau","lat":49.19828415,"lon":8.1114201987,"geoaddr":"76829 Landau Deutschland","status":"solved"},{"id":"235465","url":"https:\/\/fragdenstaat.de\/anfrage\/klimaschutz-und-klimaanpassungskonzepte-300\/","plz":"95634","city":"Tirschenreuth","lat":49.8780234,"lon":12.3372095,"geoaddr":"95634 Tirschenreuth Deutschland","status":"solved"},{"id":"235294","url":"https:\/\/fragdenstaat.de\/anfrage\/klimaschutz-und-klimaanpassungskonzepte-129\/","plz":"31785","city":"Hameln","lat":52.11165505,"lon":9.3589047299,"geoaddr":"31785 Hameln Deutschland","status":"failed"},{"id":"235379","url":"https:\/\/fragdenstaat.de\/anfrage\/klimaschutz-und-klimaanpassungskonzepte-214\/","plz":"71006","city":"B\u00f6blingen","lat":9.0113444,"lon":48.684969,"geoaddr":"71006 B\u00f6blingen Deutschland","status":"failed"},{"id":"235378","url":"https:\/\/fragdenstaat.de\/anfrage\/klimaschutz-und-klimaanpassungskonzepte-213\/","plz":"88396","city":"Biberach","lat":9.7899938,"lon":48.0984413,"geoaddr":"88396 Biberach Deutschland","status":"solved"},{"id":"235452","url":"https:\/\/fragdenstaat.de\/anfrage\/klimaschutz-und-klimaanpassungskonzepte-287\/","plz":"72711","city":"Reutlingen","lat":9.2114144,"lon":48.4919508,"geoaddr":"72711 Reutlingen Deutschland","status":"solved"},{"id":"235338","url":"https:\/\/fragdenstaat.de\/anfrage\/klimaschutz-und-klimaanpassungskonzepte-173\/","plz":"98617","city":"Meiningen","lat":50.593266,"lon":10.4165255,"geoaddr":"98617 Meiningen Deutschland","status":"solved"},{"id":"235314","url":"https:\/\/fragdenstaat.de\/anfrage\/klimaschutz-und-klimaanpassungskonzepte-149\/","plz":"21335","city":"L\u00fcneburg","lat":53.223453,"lon":10.40467,"geoaddr":"21335 L\u00fcneburg Deutschland","status":"failed"},{"id":"235222","url":"https:\/\/fragdenstaat.de\/anfrage\/klimaschutz-und-klimaanpassungskonzepte-57\/","plz":"63128","city":"Dietzenbach","lat":50.0178689,"lon":8.7857548,"geoaddr":"63128 Dietzenbach Deutschland","status":"failed"},{"id":"235394","url":"https:\/\/fragdenstaat.de\/anfrage\/klimaschutz-und-klimaanpassungskonzepte-229\/","plz":"91013","city":"Erlangen","lat":49.5928616,"lon":11.0056,"geoaddr":"91013 Erlangen Deutschland","status":"solved"},{"id":"235563","url":"https:\/\/fragdenstaat.de\/anfrage\/klimaschutz-und-klimaanpassungskonzepte-398\/","plz":"99974","city":"M\u00fchlhausen","lat":51.2060763,"lon":10.4518079,"geoaddr":"99974 M\u00fchlhausen Deutschland","status":"solved"},{"id":"235276","url":"https:\/\/fragdenstaat.de\/anfrage\/klimaschutz-und-klimaanpassungskonzepte-111\/","plz":"39340","city":"Haldensleben","lat":52.2793876,"lon":11.4261258,"geoaddr":"39340 Haldensleben Deutschland","status":"failed"},{"id":"235472","url":"https:\/\/fragdenstaat.de\/anfrage\/klimaschutz-und-klimaanpassungskonzepte-307\/","plz":"82360","city":"Weilheim","lat":47.6582006,"lon":8.2413047,"geoaddr":"82360 Weilheim Deutschland","status":"solved"},{"id":"235384","url":"https:\/\/fragdenstaat.de\/anfrage\/klimaschutz-und-klimaanpassungskonzepte-219\/","plz":"85221","city":"Dachau","lat":48.2611905,"lon":11.4276655,"geoaddr":"85221 Dachau Deutschland","status":"failed"},{"id":"235403","url":"https:\/\/fragdenstaat.de\/anfrage\/klimaschutz-und-klimaanpassungskonzepte-238\/","plz":"82455","city":"Garmisch-Partenkirchen","lat":47.4923741,"lon":11.0962815,"geoaddr":"82455 Garmisch-Partenkirchen Deutschland","status":"solved"},{"id":"235317","url":"https:\/\/fragdenstaat.de\/anfrage\/klimaschutz-und-klimaanpassungskonzepte-152\/","plz":"15306","city":"Seelow","lat":52.5331096,"lon":14.3818647,"geoaddr":"15306 Seelow Deutschland","status":"failed"},{"id":"235371","url":"https:\/\/fragdenstaat.de\/anfrage\/klimaschutz-und-klimaanpassungskonzepte-206\/","plz":"86150","city":"Augsburg","lat":48.3670136,"lon":10.8889791816,"geoaddr":"86150 Augsburg Deutschland","status":"failed"},{"id":"235422","url":"https:\/\/fragdenstaat.de\/anfrage\/klimaschutz-und-klimaanpassungskonzepte-257\/","plz":"88105","city":"Lindau","lat":47.550753,"lon":9.6926624,"geoaddr":"88105 Lindau Deutschland","status":"solved"},{"id":"235343","url":"https:\/\/fragdenstaat.de\/anfrage\/klimaschutz-und-klimaanpassungskonzepte-178\/","plz":"21682","city":"Stade","lat":53.5982827,"lon":9.4783433931,"geoaddr":"21682 Stade Deutschland","status":"failed"},{"id":"235360","url":"https:\/\/fragdenstaat.de\/anfrage\/klimaschutz-und-klimaanpassungskonzepte-195\/","plz":"61169","city":"Friedberg","lat":50.3334953,"lon":8.752599,"geoaddr":"61169 Friedberg Deutschland","status":"failed"},{"id":"235439","url":"https:\/\/fragdenstaat.de\/anfrage\/klimaschutz-und-klimaanpassungskonzepte-274\/","plz":"89207","city":"Neu-Ulm","lat":48.3954965,"lon":10.00589,"geoaddr":"89207 Neu-Ulm Deutschland","status":"solved"},{"id":"235414","url":"https:\/\/fragdenstaat.de\/anfrage\/klimaschutz-und-klimaanpassungskonzepte-249\/","plz":"97318","city":"Kitzingen","lat":49.7396272,"lon":10.160553049,"geoaddr":"97318 Kitzingen Deutschland","status":"solved"},{"id":"235251","url":"https:\/\/fragdenstaat.de\/anfrage\/klimaschutz-und-klimaanpassungskonzepte-86\/","plz":"45657","city":"Recklinghausen","lat":51.60853135,"lon":7.2046029612,"geoaddr":"45657 Recklinghausen Deutschland","status":"solved"},{"id":"235218","url":"https:\/\/fragdenstaat.de\/anfrage\/klimaschutz-und-klimaanpassungskonzepte-53\/","plz":"32051","city":"Herford,","lat":51.0834196,"lon":10.4234469,"geoaddr":"32051 Herford, Deutschland","status":"solved"},{"id":"235492","url":"https:\/\/fragdenstaat.de\/anfrage\/klimaschutz-und-klimaanpassungskonzepte-327\/","plz":"07907","city":"Schleiz","lat":50.5770967,"lon":11.804718467,"geoaddr":"07907 Schleiz Deutschland","status":"failed"},{"id":"235376","url":"https:\/\/fragdenstaat.de\/anfrage\/klimaschutz-und-klimaanpassungskonzepte-211\/","plz":"95440","city":"Bayreuth","lat":49.9427202,"lon":11.5763079,"geoaddr":"95440 Bayreuth Deutschland","status":"solved"},{"id":"235275","url":"https:\/\/fragdenstaat.de\/anfrage\/klimaschutz-und-klimaanpassungskonzepte-110\/","plz":"16225","city":"Eberswalde","lat":52.8322121,"lon":13.8187493,"geoaddr":"16225 Eberswalde Deutschland","status":"failed"},{"id":"235333","url":"https:\/\/fragdenstaat.de\/anfrage\/klimaschutz-und-klimaanpassungskonzepte-168\/","plz":"27356","city":"Rotenburg","lat":53.1108103,"lon":9.3968104,"geoaddr":"27356 Rotenburg Deutschland","status":"solved"},{"id":"235285","url":"https:\/\/fragdenstaat.de\/anfrage\/klimaschutz-und-klimaanpassungskonzepte-120\/","plz":"26441","city":"Jever","lat":53.57193285,"lon":7.8990636625,"geoaddr":"26441 Jever Deutschland","status":"solved"},{"id":"235224","url":"https:\/\/fragdenstaat.de\/anfrage\/klimaschutz-und-klimaanpassungskonzepte-59\/","plz":"48565","city":"Steinfurt","lat":52.1498749,"lon":7.344621,"geoaddr":"48565 Steinfurt Deutschland","status":"failed"},{"id":"235282","url":"https:\/\/fragdenstaat.de\/anfrage\/klimaschutz-und-klimaanpassungskonzepte-117\/","plz":"49356","city":"Diepholz","lat":52.60861465,"lon":8.3753266496,"geoaddr":"49356 Diepholz Deutschland","status":"failed"},{"id":"235203","url":"https:\/\/fragdenstaat.de\/anfrage\/klimaschutz-und-klimaanpassungskonzepte-38\/","plz":"45468","city":"M\u00fclheim","lat":51.4284582,"lon":6.8787431167,"geoaddr":"45468 M\u00fclheim Deutschland","status":"solved"},{"id":"235189","url":"https:\/\/fragdenstaat.de\/anfrage\/klimaschutz-und-klimaanpassungskonzepte-24\/","plz":"53111","city":"Bonn","lat":50.7369477,"lon":7.0944796,"geoaddr":"53111 Bonn Deutschland","status":"failed"},{"id":"235258","url":"https:\/\/fragdenstaat.de\/anfrage\/klimaschutz-und-klimaanpassungskonzepte-93\/","plz":"76829","city":"Landau","lat":49.1974181,"lon":8.0913261418,"geoaddr":"76829 Landau Deutschland","status":"solved"},{"id":"235223","url":"https:\/\/fragdenstaat.de\/anfrage\/klimaschutz-und-klimaanpassungskonzepte-58\/","plz":"57072","city":"Siegen","lat":50.8706292,"lon":8.015103037,"geoaddr":"57072 Siegen Deutschland","status":"solved"},{"id":"235211","url":"https:\/\/fragdenstaat.de\/anfrage\/klimaschutz-und-klimaanpassungskonzepte-46\/","plz":"64646","city":"Heppenheim","lat":49.6405704,"lon":8.6446152,"geoaddr":"64646 Heppenheim Deutschland","status":"solved"},{"id":"235483","url":"https:\/\/fragdenstaat.de\/anfrage\/klimaschutz-und-klimaanpassungskonzepte-318\/","plz":"26105","city":"Oldenburg","lat":53.1390718,"lon":8.2141507293,"geoaddr":"26105 Oldenburg Deutschland","status":"solved"},{"id":"235529","url":"https:\/\/fragdenstaat.de\/anfrage\/klimaschutz-und-klimaanpassungskonzepte-364\/","plz":"94303","city":"Straubing","lat":48.877222222,"lon":12.575833333,"geoaddr":"94303 Straubing Deutschland","status":"solved"},{"id":"235316","url":"https:\/\/fragdenstaat.de\/anfrage\/klimaschutz-und-klimaanpassungskonzepte-151\/","plz":"35043","city":"Marburg","lat":50.78589275,"lon":8.7716975531,"geoaddr":"35043 Marburg Deutschland","status":"solved"},{"id":"235342","url":"https:\/\/fragdenstaat.de\/anfrage\/klimaschutz-und-klimaanpassungskonzepte-177\/","plz":"03149","city":"Forst","lat":51.7496843,"lon":14.6524217744,"geoaddr":"03149 Forst Deutschland","status":"solved"},{"id":"235504","url":"https:\/\/fragdenstaat.de\/anfrage\/klimaschutz-und-klimaanpassungskonzepte-339\/","plz":"27749","city":"Delmenhorst","lat":53.04780615,"lon":8.6282766345,"geoaddr":"27749 Delmenhorst Deutschland","status":"solved"},{"id":"235481","url":"https:\/\/fragdenstaat.de\/anfrage\/klimaschutz-und-klimaanpassungskonzepte-316\/","plz":"01968","city":"Senftenberg","lat":51.514395,"lon":14.0043112,"geoaddr":"01968 Senftenberg Deutschland","status":"solved"},{"id":"235393","url":"https:\/\/fragdenstaat.de\/anfrage\/klimaschutz-und-klimaanpassungskonzepte-228\/","plz":"85422","city":"Erding","lat":48.3064441,"lon":11.9076579,"geoaddr":"85422 Erding Deutschland","status":"failed"},{"id":"235534","url":"https:\/\/fragdenstaat.de\/anfrage\/klimaschutz-und-klimaanpassungskonzepte-369\/","plz":"95410","city":"Bayreuth","lat":49.9427202,"lon":11.5763079,"geoaddr":"95410 Bayreuth Deutschland","status":"solved"},{"id":"235318","url":"https:\/\/fragdenstaat.de\/anfrage\/klimaschutz-und-klimaanpassungskonzepte-153\/","plz":"66651","city":"Merzig","lat":49.4427023,"lon":6.6374902,"geoaddr":"66651 Merzig Deutschland","status":"failed"},{"id":"235549","url":"https:\/\/fragdenstaat.de\/anfrage\/klimaschutz-und-klimaanpassungskonzepte-384\/","plz":"66953","city":"Pirmasens,","lat":49.2035181,"lon":7.6040549,"geoaddr":"66953 Pirmasens, Deutschland","status":"solved"},{"id":"235558","url":"https:\/\/fragdenstaat.de\/anfrage\/klimaschutz-und-klimaanpassungskonzepte-393\/","plz":"67547","city":"Worms,","lat":49.6300941,"lon":8.3629099,"geoaddr":"67547 Worms, Deutschland","status":"solved"},{"id":"235300","url":"https:\/\/fragdenstaat.de\/anfrage\/klimaschutz-und-klimaanpassungskonzepte-135\/","plz":"36251","city":"Bad Hersfeld","lat":50.8722626,"lon":9.7151252871,"geoaddr":"36251 Bad Hersfeld Deutschland","status":"failed"},{"id":"235407","url":"https:\/\/fragdenstaat.de\/anfrage\/klimaschutz-und-klimaanpassungskonzepte-242\/","plz":"97431","city":"Ha\u00dffurt","lat":50.0318698,"lon":10.5065562,"geoaddr":"97431 Ha\u00dffurt Deutschland","status":"failed"},{"id":"235375","url":"https:\/\/fragdenstaat.de\/anfrage\/klimaschutz-und-klimaanpassungskonzepte-210\/","plz":"02620","city":"Bautzen","lat":50.921063,"lon":14.616948,"geoaddr":"02620 Bautzen Deutschland","status":"solved"},{"id":"235432","url":"https:\/\/fragdenstaat.de\/anfrage\/klimaschutz-und-klimaanpassungskonzepte-267\/","plz":"84446","city":"M\u00fchldorf","lat":48.2405007,"lon":12.5250991,"geoaddr":"84446 M\u00fchldorf Deutschland","status":"failed"},{"id":"235217","url":"https:\/\/fragdenstaat.de\/anfrage\/klimaschutz-und-klimaanpassungskonzepte-52\/","plz":"65421","city":"Gro\u00df-Gerau","lat":49.912265,"lon":8.479127,"geoaddr":"65421 Gro\u00df-Gerau Deutschland","status":"solved"},{"id":"235457","url":"https:\/\/fragdenstaat.de\/anfrage\/klimaschutz-und-klimaanpassungskonzepte-292\/","plz":"84342","city":"Pfarrkirchen","lat":48.4320329,"lon":12.9386266,"geoaddr":"84342 Pfarrkirchen Deutschland","status":"failed"},{"id":"235553","url":"https:\/\/fragdenstaat.de\/anfrage\/klimaschutz-und-klimaanpassungskonzepte-388\/","plz":"97421","city":"Schweinfurt","lat":50.0446527,"lon":10.2348193,"geoaddr":"97421 Schweinfurt Deutschland","status":"solved"},{"id":"235522","url":"https:\/\/fragdenstaat.de\/anfrage\/klimaschutz-und-klimaanpassungskonzepte-357\/","plz":"84026","city":"Landshut","lat":48.539722222,"lon":12.150833333,"geoaddr":"84026 Landshut Deutschland","status":"solved"},{"id":"235406","url":"https:\/\/fragdenstaat.de\/anfrage\/klimaschutz-und-klimaanpassungskonzepte-241\/","plz":"89303","city":"G\u00fcnzburg","lat":48.4539028,"lon":10.2785509,"geoaddr":"89303 G\u00fcnzburg Deutschland","status":"solved"},{"id":"235503","url":"https:\/\/fragdenstaat.de\/anfrage\/klimaschutz-und-klimaanpassungskonzepte-338\/","plz":"64283","city":"Darmstadt","lat":49.8722162,"lon":8.651593,"geoaddr":"64283 Darmstadt Deutschland","status":"solved"},{"id":"235311","url":"https:\/\/fragdenstaat.de\/anfrage\/klimaschutz-und-klimaanpassungskonzepte-147\/","plz":"29439","city":"L\u00fcchow","lat":52.97089725,"lon":11.1539098093,"geoaddr":"29439 L\u00fcchow Deutschland","status":"solved"},{"id":"235283","url":"https:\/\/fragdenstaat.de\/anfrage\/klimaschutz-und-klimaanpassungskonzepte-118\/","plz":"37308","city":"Heilbad","lat":51.37813525,"lon":10.1315662598,"geoaddr":"37308 Heilbad Deutschland","status":"failed"},{"id":"235190","url":"https:\/\/fragdenstaat.de\/anfrage\/klimaschutz-und-klimaanpassungskonzepte-25\/","plz":"46236","city":"Bottrop","lat":51.5249004,"lon":6.9253402533,"geoaddr":"46236 Bottrop Deutschland","status":"failed"},{"id":"235332","url":"https:\/\/fragdenstaat.de\/anfrage\/klimaschutz-und-klimaanpassungskonzepte-167\/","plz":"18273","city":"G\u00fcstrow","lat":53.791445,"lon":12.1726442,"geoaddr":"18273 G\u00fcstrow Deutschland","status":"failed"},{"id":"235195","url":"https:\/\/fragdenstaat.de\/anfrage\/klimaschutz-und-klimaanpassungskonzepte-30\/","plz":"45879","city":"Gelsenkirchen","lat":51.5762526,"lon":7.0568592,"geoaddr":"45879 Gelsenkirchen Deutschland","status":"solved"},{"id":"235198","url":"https:\/\/fragdenstaat.de\/anfrage\/klimaschutz-und-klimaanpassungskonzepte-33\/","plz":"44623","city":"Herne","lat":51.53798035,"lon":7.2194763659,"geoaddr":"44623 Herne Deutschland","status":"failed"},{"id":"235449","url":"https:\/\/fragdenstaat.de\/anfrage\/klimaschutz-und-klimaanpassungskonzepte-284\/","plz":"94202","city":"Regen","lat":48.9700842,"lon":13.1262631,"geoaddr":"94202 Regen Deutschland","status":"solved"},{"id":"235554","url":"https:\/\/fragdenstaat.de\/anfrage\/klimaschutz-und-klimaanpassungskonzepte-389\/","plz":"67346","city":"Speyer,","lat":49.31743815,"lon":8.4403288448,"geoaddr":"67346 Speyer, Deutschland","status":"failed"},{"id":"235417","url":"https:\/\/fragdenstaat.de\/anfrage\/klimaschutz-und-klimaanpassungskonzepte-252\/","plz":"95307","city":"Kulmbach","lat":50.1008448,"lon":11.4479149,"geoaddr":"95307 Kulmbach Deutschland","status":"failed"},{"id":"235341","url":"https:\/\/fragdenstaat.de\/anfrage\/klimaschutz-und-klimaanpassungskonzepte-176\/","plz":"96515","city":"Sonneberg","lat":50.3571445,"lon":11.1703387,"geoaddr":"96515 Sonneberg Deutschland","status":"failed"},{"id":"235187","url":"https:\/\/fragdenstaat.de\/anfrage\/klimaschutz-und-klimaanpassungskonzepte-22\/","plz":"99310","city":"Arnstadt","lat":50.8352273,"lon":10.9503905,"geoaddr":"99310 Arnstadt Deutschland","status":"failed"},{"id":"235180","url":"https:\/\/fragdenstaat.de\/anfrage\/klimaschutz-und-klimaanpassungskonzepte-15\/","plz":"28195","city":"Bremen","lat":53.0790816,"lon":8.8033918,"geoaddr":"28195 Bremen Deutschland","status":"failed"},{"id":"235473","url":"https:\/\/fragdenstaat.de\/anfrage\/klimaschutz-und-klimaanpassungskonzepte-308\/","plz":"91780","city":"Wei\u00dfenburg","lat":51.1764915,"lon":11.1007781,"geoaddr":"91780 Wei\u00dfenburg Deutschland","status":"solved"},{"id":"235444","url":"https:\/\/fragdenstaat.de\/anfrage\/klimaschutz-und-klimaanpassungskonzepte-279\/","plz":"73428","city":"Aalen","lat":48.8362705,"lon":10.0931765,"geoaddr":"73428 Aalen Deutschland","status":"solved"},{"id":"235247","url":"https:\/\/fragdenstaat.de\/anfrage\/klimaschutz-und-klimaanpassungskonzepte-82\/","plz":"40822","city":"Mettmann","lat":51.2522871,"lon":6.9718716,"geoaddr":"40822 Mettmann Deutschland","status":"solved"},{"id":"235555","url":"https:\/\/fragdenstaat.de\/anfrage\/klimaschutz-und-klimaanpassungskonzepte-390\/","plz":"54280","city":"Trier,","lat":49.7596208,"lon":6.6441878,"geoaddr":"54280 Trier, Deutschland","status":"failed"},{"id":"235266","url":"https:\/\/fragdenstaat.de\/anfrage\/klimaschutz-und-klimaanpassungskonzepte-101\/","plz":"55116","city":"Mainz,","lat":50.0012314,"lon":8.2762513,"geoaddr":"55116 Mainz, Deutschland","status":"solved"},{"id":"235271","url":"https:\/\/fragdenstaat.de\/anfrage\/klimaschutz-und-klimaanpassungskonzepte-106\/","plz":"84503","city":"Alt\u00f6tting","lat":48.2268085,"lon":12.6757914,"geoaddr":"84503 Alt\u00f6tting Deutschland","status":"failed"},{"id":"235346","url":"https:\/\/fragdenstaat.de\/anfrage\/klimaschutz-und-klimaanpassungskonzepte-181\/","plz":"66606","city":"St.","lat":49.4659297,"lon":7.1662073727,"geoaddr":"66606 St. Deutschland","status":"solved"},{"id":"235551","url":"https:\/\/fragdenstaat.de\/anfrage\/klimaschutz-und-klimaanpassungskonzepte-386\/","plz":"93047","city":"Regensburg","lat":49.0204738,"lon":12.0949878089,"geoaddr":"93047 Regensburg Deutschland","status":"failed"},{"id":"235307","url":"https:\/\/fragdenstaat.de\/anfrage\/klimaschutz-und-klimaanpassungskonzepte-142\/","plz":"34117","city":"Kassel","lat":51.310864,"lon":9.4859388323,"geoaddr":"34117 Kassel Deutschland","status":"failed"},{"id":"235446","url":"https:\/\/fragdenstaat.de\/anfrage\/klimaschutz-und-klimaanpassungskonzepte-281\/","plz":"94032","city":"Passau","lat":48.5748229,"lon":13.4609744,"geoaddr":"94032 Passau Deutschland","status":"solved"},{"id":"235436","url":"https:\/\/fragdenstaat.de\/anfrage\/klimaschutz-und-klimaanpassungskonzepte-271\/","plz":"92304","city":"Neumarkt","lat":49.279624,"lon":11.4594662,"geoaddr":"92304 Neumarkt Deutschland","status":"failed"},{"id":"235206","url":"https:\/\/fragdenstaat.de\/anfrage\/klimaschutz-und-klimaanpassungskonzepte-41\/","plz":"42853","city":"Remscheid","lat":51.1824273,"lon":7.1852853,"geoaddr":"42853 Remscheid Deutschland","status":"solved"},{"id":"235277","url":"https:\/\/fragdenstaat.de\/anfrage\/klimaschutz-und-klimaanpassungskonzepte-112\/","plz":"75365","city":"Calw","lat":48.7114821,"lon":8.7461693541,"geoaddr":"75365 Calw Deutschland","status":"solved"},{"id":"235388","url":"https:\/\/fragdenstaat.de\/anfrage\/klimaschutz-und-klimaanpassungskonzepte-223\/","plz":"86607","city":"Donauw\u00f6rth","lat":48.7180364,"lon":10.7807299,"geoaddr":"86607 Donauw\u00f6rth Deutschland","status":"failed"},{"id":"235477","url":"https:\/\/fragdenstaat.de\/anfrage\/klimaschutz-und-klimaanpassungskonzepte-312\/","plz":"08067","city":"Zwickau","lat":50.7185043,"lon":12.4939267,"geoaddr":"08067 Zwickau Deutschland","status":"solved"},{"id":"235263","url":"https:\/\/fragdenstaat.de\/anfrage\/klimaschutz-und-klimaanpassungskonzepte-99\/","plz":"24103","city":"Kiel","lat":54.3223626,"lon":10.1329595745,"geoaddr":"24103 Kiel Deutschland","status":"failed"},{"id":"235507","url":"https:\/\/fragdenstaat.de\/anfrage\/klimaschutz-und-klimaanpassungskonzepte-342\/","plz":"52070","city":"Aachen","lat":50.768731,"lon":6.097192,"geoaddr":"52070 Aachen Deutschland","status":"solved"},{"id":"235373","url":"https:\/\/fragdenstaat.de\/anfrage\/klimaschutz-und-klimaanpassungskonzepte-208\/","plz":"83646","city":"Bad T\u00f6lz","lat":47.75880235,"lon":11.581354945,"geoaddr":"83646 Bad T\u00f6lz Deutschland","status":"solved"},{"id":"235309","url":"https:\/\/fragdenstaat.de\/anfrage\/klimaschutz-und-klimaanpassungskonzepte-144\/","plz":"35576","city":"Wetzlar","lat":50.55995785,"lon":8.4991084904,"geoaddr":"35576 Wetzlar Deutschland","status":"solved"},{"id":"235527","url":"https:\/\/fragdenstaat.de\/anfrage\/klimaschutz-und-klimaanpassungskonzepte-362\/","plz":"38226","city":"Salzgitter","lat":52.15578205,"lon":10.3259068497,"geoaddr":"38226 Salzgitter Deutschland","status":"failed"},{"id":"235209","url":"https:\/\/fragdenstaat.de\/anfrage\/klimaschutz-und-klimaanpassungskonzepte-44\/","plz":"48231","city":"Warendorf","lat":51.95206215,"lon":7.9874301459,"geoaddr":"48231 Warendorf Deutschland","status":"failed"},{"id":"235437","url":"https:\/\/fragdenstaat.de\/anfrage\/klimaschutz-und-klimaanpassungskonzepte-272\/","plz":"91405","city":"Neustadt","lat":49.3539802,"lon":8.1350021,"geoaddr":"91405 Neustadt Deutschland","status":"failed"},{"id":"235248","url":"https:\/\/fragdenstaat.de\/anfrage\/klimaschutz-und-klimaanpassungskonzepte-83\/","plz":"56564","city":"Neuwied,","lat":50.43119225,"lon":7.4666903573,"geoaddr":"56564 Neuwied, Deutschland","status":"failed"},{"id":"235336","url":"https:\/\/fragdenstaat.de\/anfrage\/klimaschutz-und-klimaanpassungskonzepte-171\/","plz":"66718","city":"Saarlouis","lat":49.3164661,"lon":6.749846,"geoaddr":"66718 Saarlouis Deutschland","status":"solved"},{"id":"235415","url":"https:\/\/fragdenstaat.de\/anfrage\/klimaschutz-und-klimaanpassungskonzepte-250\/","plz":"78412","city":"Konstanz","lat":9.1750718,"lon":47.659216,"geoaddr":"78412 Konstanz Deutschland","status":"solved"},{"id":"235168","url":"https:\/\/fragdenstaat.de\/anfrage\/klimaschutz-und-klimaanpassungskonzepte-3\/","plz":"06618","city":"Naumburg","lat":51.151267,"lon":11.8237159246,"geoaddr":"06618 Naumburg Deutschland","status":"solved"},{"id":"235450","url":"https:\/\/fragdenstaat.de\/anfrage\/klimaschutz-und-klimaanpassungskonzepte-285\/","plz":"20329","city":"93025","lat":49.0195333,"lon":12.0974869,"geoaddr":"20329 93025 Deutschland","status":"failed"},{"id":"235501","url":"https:\/\/fragdenstaat.de\/anfrage\/klimaschutz-und-klimaanpassungskonzepte-336\/","plz":"38100","city":"Braunschweig","lat":52.26463495,"lon":10.5249839058,"geoaddr":"38100 Braunschweig Deutschland","status":"solved"},{"id":"235362","url":"https:\/\/fragdenstaat.de\/anfrage\/klimaschutz-und-klimaanpassungskonzepte-197\/","plz":"26409","city":"Wittmund","lat":53.5755494,"lon":7.7835272,"geoaddr":"26409 Wittmund Deutschland","status":"failed"},{"id":"235303","url":"https:\/\/fragdenstaat.de\/anfrage\/klimaschutz-und-klimaanpassungskonzepte-138\/","plz":"59872","city":"Meschede","lat":51.3429783,"lon":8.2837291,"geoaddr":"59872 Meschede Deutschland","status":"solved"},{"id":"235496","url":"https:\/\/fragdenstaat.de\/anfrage\/klimaschutz-und-klimaanpassungskonzepte-331\/","plz":"91511","city":"Ansbach","lat":49.3,"lon":10.583333333,"geoaddr":"91511 Ansbach Deutschland","status":"solved"},{"id":"235401","url":"https:\/\/fragdenstaat.de\/anfrage\/klimaschutz-und-klimaanpassungskonzepte-236\/","plz":"82244","city":"F\u00fcrstenfeldbruck","lat":48.1813797,"lon":11.2382125,"geoaddr":"82244 F\u00fcrstenfeldbruck Deutschland","status":"solved"},{"id":"235502","url":"https:\/\/fragdenstaat.de\/anfrage\/klimaschutz-und-klimaanpassungskonzepte-337\/","plz":"09106","city":"Chemnitz","lat":50.614801,"lon":12.633174,"geoaddr":"09106 Chemnitz Deutschland","status":"failed"},{"id":"235315","url":"https:\/\/fragdenstaat.de\/anfrage\/klimaschutz-und-klimaanpassungskonzepte-150\/","plz":"06526","city":"Sangerhausen","lat":51.4787887,"lon":11.2975469,"geoaddr":"06526 Sangerhausen Deutschland","status":"failed"},{"id":"235476","url":"https:\/\/fragdenstaat.de\/anfrage\/klimaschutz-und-klimaanpassungskonzepte-311\/","plz":"72334","city":"Balingen","lat":48.2737512,"lon":8.8557862,"geoaddr":"72334 Balingen Deutschland","status":"solved"},{"id":"235532","url":"https:\/\/fragdenstaat.de\/anfrage\/klimaschutz-und-klimaanpassungskonzepte-367\/","plz":"92224","city":"Amberg","lat":49.4454626,"lon":11.8588748305,"geoaddr":"92224 Amberg Deutschland","status":"solved"},{"id":"235390","url":"https:\/\/fragdenstaat.de\/anfrage\/klimaschutz-und-klimaanpassungskonzepte-225\/","plz":"85072","city":"Eichst\u00e4tt","lat":48.8916491,"lon":11.1826524,"geoaddr":"85072 Eichst\u00e4tt Deutschland","status":"solved"},{"id":"235408","url":"https:\/\/fragdenstaat.de\/anfrage\/klimaschutz-und-klimaanpassungskonzepte-243\/","plz":"89518","city":"Heidenheim","lat":48.68211315,"lon":10.1498396568,"geoaddr":"89518 Heidenheim Deutschland","status":"solved"},{"id":"235321","url":"https:\/\/fragdenstaat.de\/anfrage\/klimaschutz-und-klimaanpassungskonzepte-156\/","plz":"99734","city":"Nordhausen","lat":51.50713665,"lon":10.7848955813,"geoaddr":"99734 Nordhausen Deutschland","status":"solved"},{"id":"235455","url":"https:\/\/fragdenstaat.de\/anfrage\/klimaschutz-und-klimaanpassungskonzepte-290\/","plz":"00465","city":"83004","lat":47.8539273,"lon":12.127262,"geoaddr":"00465 83004 Deutschland","status":"failed"},{"id":"235302","url":"https:\/\/fragdenstaat.de\/anfrage\/klimaschutz-und-klimaanpassungskonzepte-137\/","plz":"31134","city":"Hildesheim","lat":52.15693085,"lon":9.9498038149,"geoaddr":"31134 Hildesheim Deutschland","status":"solved"},{"id":"235400","url":"https:\/\/fragdenstaat.de\/anfrage\/klimaschutz-und-klimaanpassungskonzepte-235\/","plz":"94075","city":"Freyung","lat":48.8099603,"lon":13.5491927,"geoaddr":"94075 Freyung Deutschland","status":"failed"},{"id":"235470","url":"https:\/\/fragdenstaat.de\/anfrage\/klimaschutz-und-klimaanpassungskonzepte-305\/","plz":"08507","city":"Plauen","lat":50.4950632,"lon":12.1346523,"geoaddr":"08507 Plauen Deutschland","status":"failed"},{"id":"235194","url":"https:\/\/fragdenstaat.de\/anfrage\/klimaschutz-und-klimaanpassungskonzepte-29\/","plz":"45127","city":"Essen","lat":51.45816805,"lon":7.0159171894,"geoaddr":"45127 Essen Deutschland","status":"solved"},{"id":"235402","url":"https:\/\/fragdenstaat.de\/anfrage\/klimaschutz-und-klimaanpassungskonzepte-237\/","plz":"90507","city":"Zirndorf","lat":49.445762,"lon":10.9560462,"geoaddr":"90507 Zirndorf Deutschland","status":"failed"},{"id":"235298","url":"https:\/\/fragdenstaat.de\/anfrage\/klimaschutz-und-klimaanpassungskonzepte-133\/","plz":"29683","city":"Bad Fallingbostel","lat":52.8659894,"lon":9.6986999,"geoaddr":"29683 Bad Fallingbostel Deutschland","status":"failed"},{"id":"235383","url":"https:\/\/fragdenstaat.de\/anfrage\/klimaschutz-und-klimaanpassungskonzepte-218\/","plz":"96412","city":"Coburg","lat":50.258112,"lon":10.964463,"geoaddr":"96412 Coburg Deutschland","status":"failed"},{"id":"235517","url":"https:\/\/fragdenstaat.de\/anfrage\/klimaschutz-und-klimaanpassungskonzepte-352\/","plz":"07743","city":"Jena","lat":50.9308158,"lon":11.5915772,"geoaddr":"07743 Jena Deutschland","status":"solved"},{"id":"235197","url":"https:\/\/fragdenstaat.de\/anfrage\/klimaschutz-und-klimaanpassungskonzepte-32\/","plz":"59065","city":"Hamm","lat":51.6806824,"lon":7.8117475,"geoaddr":"59065 Hamm Deutschland","status":"solved"},{"id":"235494","url":"https:\/\/fragdenstaat.de\/anfrage\/klimaschutz-und-klimaanpassungskonzepte-329\/","plz":"06400","city":"Bernburg","lat":51.7952645,"lon":11.7447357,"geoaddr":"06400 Bernburg Deutschland","status":"failed"},{"id":"235547","url":"https:\/\/fragdenstaat.de\/anfrage\/klimaschutz-und-klimaanpassungskonzepte-382\/","plz":"90403","city":"N\u00fcrnberg","lat":49.4552192,"lon":11.0781712,"geoaddr":"90403 N\u00fcrnberg Deutschland","status":"solved"},{"id":"235526","url":"https:\/\/fragdenstaat.de\/anfrage\/klimaschutz-und-klimaanpassungskonzepte-361\/","plz":"75158","city":"Pforzheim","lat":48.8908846,"lon":8.7029532,"geoaddr":"75158 Pforzheim Deutschland","status":"solved"},{"id":"235464","url":"https:\/\/fragdenstaat.de\/anfrage\/klimaschutz-und-klimaanpassungskonzepte-299\/","plz":"72484","city":"Sigmaringen","lat":9.2178879,"lon":48.0855844,"geoaddr":"72484 Sigmaringen Deutschland","status":"solved"},{"id":"235392","url":"https:\/\/fragdenstaat.de\/anfrage\/klimaschutz-und-klimaanpassungskonzepte-227\/","plz":"75110","city":"Pforzheim","lat":8.7029532,"lon":48.8908846,"geoaddr":"75110 Pforzheim Deutschland","status":"solved"},{"id":"235431","url":"https:\/\/fragdenstaat.de\/anfrage\/klimaschutz-und-klimaanpassungskonzepte-266\/","plz":"09599","city":"Freiberg","lat":50.9129234,"lon":13.354731,"geoaddr":"09599 Freiberg Deutschland","status":"failed"},{"id":"235287","url":"https:\/\/fragdenstaat.de\/anfrage\/klimaschutz-und-klimaanpassungskonzepte-123\/","plz":"38518","city":"Gifhorn","lat":52.489447,"lon":10.5479949818,"geoaddr":"38518 Gifhorn Deutschland","status":"failed"},{"id":"235268","url":"https:\/\/fragdenstaat.de\/anfrage\/klimaschutz-und-klimaanpassungskonzepte-103\/","plz":"70161","city":"Stuttgart","lat":48.7825,"lon":9.17694,"geoaddr":"70161 Stuttgart Deutschland","status":"solved"},{"id":"235256","url":"https:\/\/fragdenstaat.de\/anfrage\/klimaschutz-und-klimaanpassungskonzepte-91\/","plz":"67063","city":"Ludwigshafen","lat":49.48497255,"lon":8.43996557,"geoaddr":"67063 Ludwigshafen Deutschland","status":"failed"},{"id":"235523","url":"https:\/\/fragdenstaat.de\/anfrage\/klimaschutz-und-klimaanpassungskonzepte-358\/","plz":"04092","city":"Leipzig","lat":51.341184,"lon":12.375413,"geoaddr":"04092 Leipzig Deutschland","status":"solved"},{"id":"235564","url":"https:\/\/fragdenstaat.de\/anfrage\/klimaschutz-und-klimaanpassungskonzepte-399\/","plz":"36341","city":"Lauterbach","lat":50.6407376,"lon":9.399286377,"geoaddr":"36341 Lauterbach Deutschland","status":"failed"},{"id":"235196","url":"https:\/\/fragdenstaat.de\/anfrage\/klimaschutz-und-klimaanpassungskonzepte-31\/","plz":"58095","city":"Hagen","lat":51.3586638,"lon":7.4749353682,"geoaddr":"58095 Hagen Deutschland","status":"solved"},{"id":"235274","url":"https:\/\/fragdenstaat.de\/anfrage\/klimaschutz-und-klimaanpassungskonzepte-109\/","plz":"26603","city":"Aurich","lat":53.46720465,"lon":7.4840657251,"geoaddr":"26603 Aurich Deutschland","status":"solved"},{"id":"235531","url":"https:\/\/fragdenstaat.de\/anfrage\/klimaschutz-und-klimaanpassungskonzepte-366\/","plz":"89070","city":"Ulm","lat":48.39693405,"lon":9.9932214062,"geoaddr":"89070 Ulm Deutschland","status":"solved"},{"id":"235246","url":"https:\/\/fragdenstaat.de\/anfrage\/klimaschutz-und-klimaanpassungskonzepte-81\/","plz":"56068","city":"Koblenz,","lat":50.35207,"lon":7.5902725,"geoaddr":"56068 Koblenz, Deutschland","status":"solved"},{"id":"235178","url":"https:\/\/fragdenstaat.de\/anfrage\/klimaschutz-und-klimaanpassungskonzepte-13\/","plz":"25524","city":"Itzehoe","lat":53.92472,"lon":9.5122084562,"geoaddr":"25524 Itzehoe Deutschland","status":"failed"},{"id":"235335","url":"https:\/\/fragdenstaat.de\/anfrage\/klimaschutz-und-klimaanpassungskonzepte-170\/","plz":"07318","city":"Saalfeld","lat":50.65363455,"lon":11.3592497734,"geoaddr":"07318 Saalfeld Deutschland","status":"failed"},{"id":"235510","url":"https:\/\/fragdenstaat.de\/anfrage\/klimaschutz-und-klimaanpassungskonzepte-345\/","plz":"24931","city":"Flensburg","lat":54.7833021,"lon":9.4333264,"geoaddr":"24931 Flensburg Deutschland","status":"solved"},{"id":"235416","url":"https:\/\/fragdenstaat.de\/anfrage\/klimaschutz-und-klimaanpassungskonzepte-251\/","plz":"96305","city":"Kronach","lat":50.2397846,"lon":11.3277669,"geoaddr":"96305 Kronach Deutschland","status":"solved"},{"id":"235340","url":"https:\/\/fragdenstaat.de\/anfrage\/klimaschutz-und-klimaanpassungskonzepte-175\/","plz":"99610","city":"S\u00f6mmerda","lat":51.1643763,"lon":11.124292407,"geoaddr":"99610 S\u00f6mmerda Deutschland","status":"failed"},{"id":"235334","url":"https:\/\/fragdenstaat.de\/anfrage\/klimaschutz-und-klimaanpassungskonzepte-169\/","plz":"06217","city":"Merseburg,","lat":51.3591083,"lon":12.0013374,"geoaddr":"06217 Merseburg, Deutschland","status":"failed"},{"id":"235451","url":"https:\/\/fragdenstaat.de\/anfrage\/klimaschutz-und-klimaanpassungskonzepte-286\/","plz":"71328","city":"Waiblingen","lat":9.3305129,"lon":48.8425793,"geoaddr":"71328 Waiblingen Deutschland","status":"solved"},{"id":"235350","url":"https:\/\/fragdenstaat.de\/anfrage\/klimaschutz-und-klimaanpassungskonzepte-185\/","plz":"49377","city":"Vechta","lat":52.7324902,"lon":8.2935544,"geoaddr":"49377 Vechta Deutschland","status":"failed"},{"id":"235498","url":"https:\/\/fragdenstaat.de\/anfrage\/klimaschutz-und-klimaanpassungskonzepte-333\/","plz":"86143","city":"Augsburg","lat":48.36732,"lon":10.89212,"geoaddr":"86143 Augsburg Deutschland","status":"failed"},{"id":"235513","url":"https:\/\/fragdenstaat.de\/anfrage\/klimaschutz-und-klimaanpassungskonzepte-348\/","plz":"06108","city":"Halle","lat":51.48256465,"lon":11.9717438562,"geoaddr":"06108 Halle Deutschland","status":"solved"},{"id":"235290","url":"https:\/\/fragdenstaat.de\/anfrage\/klimaschutz-und-klimaanpassungskonzepte-125\/","plz":"99867","city":"Gotha","lat":50.947734,"lon":10.693408,"geoaddr":"99867 Gotha Deutschland","status":"failed"},{"id":"235322","url":"https:\/\/fragdenstaat.de\/anfrage\/klimaschutz-und-klimaanpassungskonzepte-157\/","plz":"23970","city":"Wismar","lat":53.89258725,"lon":11.4726445591,"geoaddr":"23970 Wismar Deutschland","status":"failed"},{"id":"235243","url":"https:\/\/fragdenstaat.de\/anfrage\/klimaschutz-und-klimaanpassungskonzepte-78\/","plz":"15848","city":"Beeskow","lat":52.16782305,"lon":14.2409133739,"geoaddr":"15848 Beeskow Deutschland","status":"failed"},{"id":"235499","url":"https:\/\/fragdenstaat.de\/anfrage\/klimaschutz-und-klimaanpassungskonzepte-334\/","plz":"76520","city":"Baden-Baden","lat":48.410514,"lon":7.7734667,"geoaddr":"76520 Baden-Baden Deutschland","status":"failed"},{"id":"235269","url":"https:\/\/fragdenstaat.de\/anfrage\/klimaschutz-und-klimaanpassungskonzepte-104\/","plz":"65183","city":"Wiesbaden","lat":50.08187245,"lon":8.2420197685,"geoaddr":"65183 Wiesbaden Deutschland","status":"failed"},{"id":"235281","url":"https:\/\/fragdenstaat.de\/anfrage\/klimaschutz-und-klimaanpassungskonzepte-116\/","plz":"64276","city":"Darmstadt","lat":49.872775,"lon":8.651177,"geoaddr":"64276 Darmstadt Deutschland","status":"solved"},{"id":"235445","url":"https:\/\/fragdenstaat.de\/anfrage\/klimaschutz-und-klimaanpassungskonzepte-280\/","plz":"87610","city":"Marktoberdorf","lat":47.7750654,"lon":10.6170847,"geoaddr":"87610 Marktoberdorf Deutschland","status":"solved"},{"id":"235353","url":"https:\/\/fragdenstaat.de\/anfrage\/klimaschutz-und-klimaanpassungskonzepte-188\/","plz":"17489","city":"Greifswald","lat":54.086161,"lon":13.389088,"geoaddr":"17489 Greifswald Deutschland","status":"failed"},{"id":"235363","url":"https:\/\/fragdenstaat.de\/anfrage\/klimaschutz-und-klimaanpassungskonzepte-198\/","plz":"38300","city":"Wolfenb\u00fcttel","lat":52.1597293,"lon":10.5345364964,"geoaddr":"38300 Wolfenb\u00fcttel Deutschland","status":"solved"},{"id":"235207","url":"https:\/\/fragdenstaat.de\/anfrage\/klimaschutz-und-klimaanpassungskonzepte-42\/","plz":"42651","city":"Solingen","lat":51.1770074,"lon":7.0862995,"geoaddr":"42651 Solingen Deutschland","status":"failed"},{"id":"235520","url":"https:\/\/fragdenstaat.de\/anfrage\/klimaschutz-und-klimaanpassungskonzepte-355\/","plz":"87577","city":"Kaufbeuren","lat":47.88,"lon":10.6225,"geoaddr":"87577 Kaufbeuren Deutschland","status":"solved"},{"id":"235171","url":"https:\/\/fragdenstaat.de\/anfrage\/klimaschutz-und-klimaanpassungskonzepte-6\/","plz":"23909","city":"Ratzeburg","lat":53.69856815,"lon":10.7726762238,"geoaddr":"23909 Ratzeburg Deutschland","status":"solved"},{"id":"235524","url":"https:\/\/fragdenstaat.de\/anfrage\/klimaschutz-und-klimaanpassungskonzepte-359\/","plz":"68030","city":"Mannheim","lat":8.4673098,"lon":49.4892913,"geoaddr":"68030 Mannheim Deutschland","status":"solved"},{"id":"235485","url":"https:\/\/fragdenstaat.de\/anfrage\/klimaschutz-und-klimaanpassungskonzepte-321\/","plz":"66119","city":"Saarbr\u00fccken","lat":49.230005,"lon":6.9913299,"geoaddr":"66119 Saarbr\u00fccken Deutschland","status":"solved"},{"id":"235420","url":"https:\/\/fragdenstaat.de\/anfrage\/klimaschutz-und-klimaanpassungskonzepte-256\/","plz":"96203","city":"Lichtenfels","lat":50.14568,"lon":11.06382,"geoaddr":"96203 Lichtenfels Deutschland","status":"solved"},{"id":"235448","url":"https:\/\/fragdenstaat.de\/anfrage\/klimaschutz-und-klimaanpassungskonzepte-282\/","plz":"85264","city":"Pfaffenhofen","lat":49.0641578,"lon":8.9753958,"geoaddr":"85264 Pfaffenhofen Deutschland","status":"solved"},{"id":"235548","url":"https:\/\/fragdenstaat.de\/anfrage\/klimaschutz-und-klimaanpassungskonzepte-383\/","plz":"94032","city":"Passau","lat":48.701766,"lon":13.019319,"geoaddr":"94032 Passau Deutschland","status":"solved"},{"id":"235270","url":"https:\/\/fragdenstaat.de\/anfrage\/klimaschutz-und-klimaanpassungskonzepte-105\/","plz":"04600","city":"Altenburg","lat":50.9875411,"lon":12.4316643209,"geoaddr":"04600 Altenburg Deutschland","status":"solved"},{"id":"235191","url":"https:\/\/fragdenstaat.de\/anfrage\/klimaschutz-und-klimaanpassungskonzepte-26\/","plz":"44135","city":"Dortmund","lat":51.5114555,"lon":7.4652142567,"geoaddr":"44135 Dortmund Deutschland","status":"solved"},{"id":"235337","url":"https:\/\/fragdenstaat.de\/anfrage\/klimaschutz-und-klimaanpassungskonzepte-172\/","plz":"31655","city":"Stadthagen","lat":52.31354035,"lon":9.1906473,"geoaddr":"31655 Stadthagen Deutschland","status":"solved"},{"id":"235385","url":"https:\/\/fragdenstaat.de\/anfrage\/klimaschutz-und-klimaanpassungskonzepte-220\/","plz":"94455","city":"Deggendorf","lat":48.8333535,"lon":12.96205,"geoaddr":"94455 Deggendorf Deutschland","status":"solved"},{"id":"235186","url":"https:\/\/fragdenstaat.de\/anfrage\/klimaschutz-und-klimaanpassungskonzepte-21\/","plz":"18055","city":"Rostock","lat":54.0887531,"lon":12.1411632577,"geoaddr":"18055 Rostock Deutschland","status":"solved"},{"id":"235324","url":"https:\/\/fragdenstaat.de\/anfrage\/klimaschutz-und-klimaanpassungskonzepte-159\/","plz":"16515","city":"Oranienburg","lat":52.7516825,"lon":13.2387409,"geoaddr":"16515 Oranienburg Deutschland","status":"failed"},{"id":"235357","url":"https:\/\/fragdenstaat.de\/anfrage\/klimaschutz-und-klimaanpassungskonzepte-192\/","plz":"99510","city":"Apolda","lat":51.02550785,"lon":11.5182191467,"geoaddr":"99510 Apolda Deutschland","status":"solved"},{"id":"235550","url":"https:\/\/fragdenstaat.de\/anfrage\/klimaschutz-und-klimaanpassungskonzepte-385\/","plz":"14469","city":"Potsdam","lat":52.21944,"lon":12.675,"geoaddr":"14469 Potsdam Deutschland","status":"solved"},{"id":"235418","url":"https:\/\/fragdenstaat.de\/anfrage\/klimaschutz-und-klimaanpassungskonzepte-253\/","plz":"04550","city":"Borna","lat":51.1241649,"lon":12.4999055,"geoaddr":"04550 Borna Deutschland","status":"solved"},{"id":"235479","url":"https:\/\/fragdenstaat.de\/anfrage\/klimaschutz-und-klimaanpassungskonzepte-314\/","plz":"63571","city":"Gelnhausen","lat":50.20067015,"lon":9.1975377216,"geoaddr":"63571 Gelnhausen Deutschland","status":"failed"},{"id":"235230","url":"https:\/\/fragdenstaat.de\/anfrage\/klimaschutz-und-klimaanpassungskonzepte-65\/","plz":"67098","city":"Bad D\u00fcrkheim,","lat":49.4595924,"lon":8.1703218,"geoaddr":"67098 Bad D\u00fcrkheim, Deutschland","status":"failed"},{"id":"235239","url":"https:\/\/fragdenstaat.de\/anfrage\/klimaschutz-und-klimaanpassungskonzepte-74\/","plz":"76726","city":"Germersheim,","lat":49.2179622,"lon":8.3736739,"geoaddr":"76726 Germersheim, Deutschland","status":"solved"},{"id":"235225","url":"https:\/\/fragdenstaat.de\/anfrage\/klimaschutz-und-klimaanpassungskonzepte-60\/","plz":"59425","city":"Unna","lat":51.544603,"lon":7.691027,"geoaddr":"59425 Unna Deutschland","status":"failed"},{"id":"235240","url":"https:\/\/fragdenstaat.de\/anfrage\/klimaschutz-und-klimaanpassungskonzepte-75\/","plz":"33324","city":"G\u00fctersloh","lat":51.8766132,"lon":8.4875629,"geoaddr":"33324 G\u00fctersloh Deutschland","status":"failed"},{"id":"235278","url":"https:\/\/fragdenstaat.de\/anfrage\/klimaschutz-und-klimaanpassungskonzepte-113\/","plz":"29221","city":"Celle","lat":52.6232326,"lon":10.0728154092,"geoaddr":"29221 Celle Deutschland","status":"solved"},{"id":"235352","url":"https:\/\/fragdenstaat.de\/anfrage\/klimaschutz-und-klimaanpassungskonzepte-187\/","plz":"82319","city":"Starnberg","lat":47.9997228,"lon":11.3512290073,"geoaddr":"82319 Starnberg Deutschland","status":"failed"},{"id":"235398","url":"https:\/\/fragdenstaat.de\/anfrage\/klimaschutz-und-klimaanpassungskonzepte-233\/","plz":"85316","city":"Freising","lat":48.4008273,"lon":11.7439565,"geoaddr":"85316 Freising Deutschland","status":"solved"},{"id":"235480","url":"https:\/\/fragdenstaat.de\/anfrage\/klimaschutz-und-klimaanpassungskonzepte-315\/","plz":"65719","city":"Hofheim","lat":50.08001945,"lon":8.4494394614,"geoaddr":"65719 Hofheim Deutschland","status":"solved"},{"id":"235234","url":"https:\/\/fragdenstaat.de\/anfrage\/klimaschutz-und-klimaanpassungskonzepte-69\/","plz":"56812","city":"Cochem,","lat":50.14830135,"lon":7.1668912608,"geoaddr":"56812 Cochem, Deutschland","status":"failed"},{"id":"235461","url":"https:\/\/fragdenstaat.de\/anfrage\/klimaschutz-und-klimaanpassungskonzepte-296\/","plz":"92406","city":"Schwandorf","lat":49.3261854,"lon":12.1092708,"geoaddr":"92406 Schwandorf Deutschland","status":"failed"},{"id":"235253","url":"https:\/\/fragdenstaat.de\/anfrage\/klimaschutz-und-klimaanpassungskonzepte-88\/","plz":"50126","city":"Bergheim","lat":50.951268,"lon":6.631427,"geoaddr":"50126 Bergheim Deutschland","status":"solved"},{"id":"235518","url":"https:\/\/fragdenstaat.de\/anfrage\/klimaschutz-und-klimaanpassungskonzepte-353\/","plz":"76124","city":"Karlsruhe","lat":49.0068705,"lon":8.4034195,"geoaddr":"76124 Karlsruhe Deutschland","status":"solved"},{"id":"235173","url":"https:\/\/fragdenstaat.de\/anfrage\/klimaschutz-und-klimaanpassungskonzepte-8\/","plz":"23701","city":"Eutin","lat":54.1357282,"lon":10.6173711,"geoaddr":"23701 Eutin Deutschland","status":"solved"},{"id":"235255","url":"https:\/\/fragdenstaat.de\/anfrage\/klimaschutz-und-klimaanpassungskonzepte-89\/","plz":"55469","city":"Simmern\/Hunsr\u00fcck,","lat":49.98529815,"lon":7.5257727326,"geoaddr":"55469 Simmern\/Hunsr\u00fcck, Deutschland","status":"solved"},{"id":"235367","url":"https:\/\/fragdenstaat.de\/anfrage\/klimaschutz-und-klimaanpassungskonzepte-202\/","plz":"86551","city":"Aichach","lat":48.4547526,"lon":11.1298371143,"geoaddr":"86551 Aichach Deutschland","status":"solved"},{"id":"235242","url":"https:\/\/fragdenstaat.de\/anfrage\/klimaschutz-und-klimaanpassungskonzepte-77\/","plz":"66869","city":"Kusel,","lat":49.5247453,"lon":7.3801247,"geoaddr":"66869 Kusel, Deutschland","status":"solved"},{"id":"235231","url":"https:\/\/fragdenstaat.de\/anfrage\/klimaschutz-und-klimaanpassungskonzepte-66\/","plz":"55543","city":"Bad Kreuznach,","lat":49.8406166,"lon":7.859769,"geoaddr":"55543 Bad Kreuznach, Deutschland","status":"failed"},{"id":"235166","url":"https:\/\/fragdenstaat.de\/anfrage\/klimaschutz-und-klimaanpassungskonzepte-1\/","plz":"21109","city":"Hamburg","lat":53.4977259,"lon":10.0037004,"geoaddr":"21109 Hamburg Deutschland","status":"solved"},{"id":"235193","url":"https:\/\/fragdenstaat.de\/anfrage\/klimaschutz-und-klimaanpassungskonzepte-28\/","plz":"40213","city":"D\u00fcsseldorf","lat":51.22597605,"lon":6.7713951341,"geoaddr":"40213 D\u00fcsseldorf Deutschland","status":"solved"},{"id":"235537","url":"https:\/\/fragdenstaat.de\/anfrage\/klimaschutz-und-klimaanpassungskonzepte-372\/","plz":"15230","city":"Frankfurt","lat":52.3440653,"lon":14.5540157,"geoaddr":"15230 Frankfurt Deutschland","status":"failed"},{"id":"235443","url":"https:\/\/fragdenstaat.de\/anfrage\/klimaschutz-und-klimaanpassungskonzepte-278\/","plz":"77609","city":"Offenburg","lat":7.944378,"lon":48.4716556,"geoaddr":"77609 Offenburg Deutschland","status":"solved"},{"id":"235508","url":"https:\/\/fragdenstaat.de\/anfrage\/klimaschutz-und-klimaanpassungskonzepte-343\/","plz":"99084","city":"Erfurt","lat":50.9778922,"lon":11.0292569,"geoaddr":"99084 Erfurt Deutschland","status":"solved"},{"id":"235540","url":"https:\/\/fragdenstaat.de\/anfrage\/klimaschutz-und-klimaanpassungskonzepte-375\/","plz":"67653","city":"Kaiserslautern,","lat":49.4467059,"lon":7.7677658153,"geoaddr":"67653 Kaiserslautern, Deutschland","status":"solved"},{"id":"235491","url":"https:\/\/fragdenstaat.de\/anfrage\/klimaschutz-und-klimaanpassungskonzepte-326\/","plz":"07607","city":"Eisenberg","lat":50.967787,"lon":11.905092,"geoaddr":"07607 Eisenberg Deutschland","status":"solved"},{"id":"235212","url":"https:\/\/fragdenstaat.de\/anfrage\/klimaschutz-und-klimaanpassungskonzepte-47\/","plz":"46325","city":"Borken","lat":51.8515634,"lon":6.841981,"geoaddr":"46325 Borken Deutschland","status":"failed"},{"id":"235306","url":"https:\/\/fragdenstaat.de\/anfrage\/klimaschutz-und-klimaanpassungskonzepte-141\/","plz":"39288","city":"Burg","lat":52.27293195,"lon":11.8463723988,"geoaddr":"39288 Burg Deutschland","status":"failed"},{"id":"235165","url":"https:\/\/fragdenstaat.de\/anfrage\/klimaschutz-und-klimaanpassungskonzepte\/","plz":"29410","city":"Salzwedel,","lat":52.8580738,"lon":11.1443624,"geoaddr":"29410 Salzwedel, Deutschland","status":"failed"},{"id":"235552","url":"https:\/\/fragdenstaat.de\/anfrage\/klimaschutz-und-klimaanpassungskonzepte-387\/","plz":"83013","city":"Rosenheim","lat":47.8539273,"lon":12.127262,"geoaddr":"83013 Rosenheim Deutschland","status":"failed"},{"id":"235259","url":"https:\/\/fragdenstaat.de\/anfrage\/klimaschutz-und-klimaanpassungskonzepte-94\/","plz":"66953","city":"Pirmasens,","lat":49.2124462,"lon":7.6184256,"geoaddr":"66953 Pirmasens, Deutschland","status":"solved"},{"id":"235361","url":"https:\/\/fragdenstaat.de\/anfrage\/klimaschutz-und-klimaanpassungskonzepte-196\/","plz":"06886","city":"Lutherstadt","lat":51.87152835,"lon":12.6399430406,"geoaddr":"06886 Lutherstadt Deutschland","status":"failed"},{"id":"235208","url":"https:\/\/fragdenstaat.de\/anfrage\/klimaschutz-und-klimaanpassungskonzepte-43\/","plz":"41747","city":"Viersen","lat":51.2558636,"lon":6.3944327,"geoaddr":"41747 Viersen Deutschland","status":"solved"},{"id":"235174","url":"https:\/\/fragdenstaat.de\/anfrage\/klimaschutz-und-klimaanpassungskonzepte-9\/","plz":"25421","city":"Pinneberg","lat":53.6590202,"lon":9.7973908602,"geoaddr":"25421 Pinneberg Deutschland","status":"solved"},{"id":"235210","url":"https:\/\/fragdenstaat.de\/anfrage\/klimaschutz-und-klimaanpassungskonzepte-45\/","plz":"42275","city":"Wuppertal","lat":51.2722224,"lon":7.2018851,"geoaddr":"42275 Wuppertal Deutschland","status":"solved"},{"id":"235175","url":"https:\/\/fragdenstaat.de\/anfrage\/klimaschutz-und-klimaanpassungskonzepte-10\/","plz":"24306","city":"Pl\u00f6n","lat":54.1585189,"lon":10.4174989962,"geoaddr":"24306 Pl\u00f6n Deutschland","status":"solved"},{"id":"235530","url":"https:\/\/fragdenstaat.de\/anfrage\/klimaschutz-und-klimaanpassungskonzepte-365\/","plz":"98527","city":"Suhl","lat":50.31935,"lon":10.571404,"geoaddr":"98527 Suhl Deutschland","status":"solved"},{"id":"235556","url":"https:\/\/fragdenstaat.de\/anfrage\/klimaschutz-und-klimaanpassungskonzepte-391\/","plz":"92637","city":"Weiden","lat":49.6732373,"lon":12.1606033,"geoaddr":"92637 Weiden Deutschland","status":"failed"},{"id":"235241","url":"https:\/\/fragdenstaat.de\/anfrage\/klimaschutz-und-klimaanpassungskonzepte-76\/","plz":"67657","city":"Kaiserslautern,","lat":49.4476881,"lon":7.7667011088,"geoaddr":"67657 Kaiserslautern, Deutschland","status":"solved"},{"id":"235329","url":"https:\/\/fragdenstaat.de\/anfrage\/klimaschutz-und-klimaanpassungskonzepte-164\/","plz":"31224","city":"Peine","lat":52.32481555,"lon":10.2252853112,"geoaddr":"31224 Peine Deutschland","status":"failed"},{"id":"235562","url":"https:\/\/fragdenstaat.de\/anfrage\/klimaschutz-und-klimaanpassungskonzepte-397\/","plz":"26382","city":"Wilhelmshaven","lat":53.5265289,"lon":8.1097756,"geoaddr":"26382 Wilhelmshaven Deutschland","status":"failed"},{"id":"235411","url":"https:\/\/fragdenstaat.de\/anfrage\/klimaschutz-und-klimaanpassungskonzepte-246\/","plz":"74643","city":"K\u00fcnzelsau","lat":9.6901512,"lon":49.2803765,"geoaddr":"74643 K\u00fcnzelsau Deutschland","status":"solved"},{"id":"235176","url":"https:\/\/fragdenstaat.de\/anfrage\/klimaschutz-und-klimaanpassungskonzepte-11\/","plz":"24837","city":"Schleswig","lat":54.5143681,"lon":9.5461378743,"geoaddr":"24837 Schleswig Deutschland","status":"failed"},{"id":"235397","url":"https:\/\/fragdenstaat.de\/anfrage\/klimaschutz-und-klimaanpassungskonzepte-232\/","plz":"91301","city":"Forchheim","lat":49.7170825,"lon":11.0616984,"geoaddr":"91301 Forchheim Deutschland","status":"failed"},{"id":"235468","url":"https:\/\/fragdenstaat.de\/anfrage\/klimaschutz-und-klimaanpassungskonzepte-303\/","plz":"78509","city":"Tuttlingen","lat":8.8186606,"lon":47.9844315,"geoaddr":"78509 Tuttlingen Deutschland","status":"failed"},{"id":"235533","url":"https:\/\/fragdenstaat.de\/anfrage\/klimaschutz-und-klimaanpassungskonzepte-368\/","plz":"96047","city":"Bamberg","lat":49.8916044,"lon":10.8868478,"geoaddr":"96047 Bamberg Deutschland","status":"solved"},{"id":"235297","url":"https:\/\/fragdenstaat.de\/anfrage\/klimaschutz-und-klimaanpassungskonzepte-132\/","plz":"14712","city":"Rathenow","lat":52.60496485,"lon":12.3488566884,"geoaddr":"14712 Rathenow Deutschland","status":"failed"},{"id":"235433","url":"https:\/\/fragdenstaat.de\/anfrage\/klimaschutz-und-klimaanpassungskonzepte-268\/","plz":"81507","city":"M\u00fcnchen","lat":48.1371079,"lon":11.5753822,"geoaddr":"81507 M\u00fcnchen Deutschland","status":"solved"},{"id":"235535","url":"https:\/\/fragdenstaat.de\/anfrage\/klimaschutz-und-klimaanpassungskonzepte-370\/","plz":"96450","city":"Coburg","lat":50.257899,"lon":10.96459,"geoaddr":"96450 Coburg Deutschland","status":"solved"},{"id":"235514","url":"https:\/\/fragdenstaat.de\/anfrage\/klimaschutz-und-klimaanpassungskonzepte-349\/","plz":"69045","city":"Heidelberg","lat":49.4093582,"lon":8.694724,"geoaddr":"69045 Heidelberg Deutschland","status":"failed"},{"id":"235308","url":"https:\/\/fragdenstaat.de\/anfrage\/klimaschutz-und-klimaanpassungskonzepte-143\/","plz":"99706","city":"Sondershausen","lat":51.37197905,"lon":10.8722549654,"geoaddr":"99706 Sondershausen Deutschland","status":"failed"},{"id":"235233","url":"https:\/\/fragdenstaat.de\/anfrage\/klimaschutz-und-klimaanpassungskonzepte-68\/","plz":"55765","city":"Birkenfeld,","lat":49.6491237,"lon":7.1636574434,"geoaddr":"55765 Birkenfeld, Deutschland","status":"solved"},{"id":"235419","url":"https:\/\/fragdenstaat.de\/anfrage\/klimaschutz-und-klimaanpassungskonzepte-255\/","plz":"84036","city":"Landshut","lat":48.52281575,"lon":12.1470054989,"geoaddr":"84036 Landshut Deutschland","status":"solved"},{"id":"235442","url":"https:\/\/fragdenstaat.de\/anfrage\/klimaschutz-und-klimaanpassungskonzepte-277\/","plz":"87527","city":"Sonthofen","lat":47.5047006,"lon":10.3061977,"geoaddr":"87527 Sonthofen Deutschland","status":"solved"},{"id":"235296","url":"https:\/\/fragdenstaat.de\/anfrage\/klimaschutz-und-klimaanpassungskonzepte-131\/","plz":"38820","city":"Halberstadt","lat":51.8882877,"lon":11.0577557609,"geoaddr":"38820 Halberstadt Deutschland","status":"failed"},{"id":"235304","url":"https:\/\/fragdenstaat.de\/anfrage\/klimaschutz-und-klimaanpassungskonzepte-139\/","plz":"61352","city":"Bad Homburg","lat":50.2158597,"lon":8.6158564,"geoaddr":"61352 Bad Homburg Deutschland","status":"failed"},{"id":"235254","url":"https:\/\/fragdenstaat.de\/anfrage\/klimaschutz-und-klimaanpassungskonzepte-90\/","plz":"56130","city":"Bad Ems,","lat":50.34879815,"lon":7.71927715,"geoaddr":"56130 Bad Ems, Deutschland","status":"solved"},{"id":"235348","url":"https:\/\/fragdenstaat.de\/anfrage\/klimaschutz-und-klimaanpassungskonzepte-183\/","plz":"17291","city":"Prenzlau","lat":53.3120032,"lon":13.8676418,"geoaddr":"17291 Prenzlau Deutschland","status":"solved"},{"id":"235386","url":"https:\/\/fragdenstaat.de\/anfrage\/klimaschutz-und-klimaanpassungskonzepte-221\/","plz":"89401","city":"Dillingen","lat":48.5812547,"lon":10.4951425,"geoaddr":"89401 Dillingen Deutschland","status":"failed"},{"id":"235469","url":"https:\/\/fragdenstaat.de\/anfrage\/klimaschutz-und-klimaanpassungskonzepte-304\/","plz":"87713","city":"Mindelheim","lat":48.0464164,"lon":10.4882504,"geoaddr":"87713 Mindelheim Deutschland","status":"solved"},{"id":"235260","url":"https:\/\/fragdenstaat.de\/anfrage\/klimaschutz-und-klimaanpassungskonzepte-95\/","plz":"54290","city":"Trier,","lat":49.75367145,"lon":6.6450984243,"geoaddr":"54290 Trier, Deutschland","status":"failed"},{"id":"235181","url":"https:\/\/fragdenstaat.de\/anfrage\/klimaschutz-und-klimaanpassungskonzepte-17\/","plz":"26721","city":"Emden","lat":53.36484085,"lon":7.2017816795,"geoaddr":"26721 Emden Deutschland","status":"solved"},{"id":"235299","url":"https:\/\/fragdenstaat.de\/anfrage\/klimaschutz-und-klimaanpassungskonzepte-134\/","plz":"38350","city":"Helmstedt","lat":52.2215676,"lon":11.0074078031,"geoaddr":"38350 Helmstedt Deutschland","status":"solved"},{"id":"235288","url":"https:\/\/fragdenstaat.de\/anfrage\/klimaschutz-und-klimaanpassungskonzepte-122\/","plz":"35390","city":"Gie\u00dfen","lat":50.5855027,"lon":8.6807519793,"geoaddr":"35390 Gie\u00dfen Deutschland","status":"solved"},{"id":"235395","url":"https:\/\/fragdenstaat.de\/anfrage\/klimaschutz-und-klimaanpassungskonzepte-230\/","plz":"09456","city":"Annaberg-Buchholz","lat":50.5868227,"lon":13.0099015944,"geoaddr":"09456 Annaberg-Buchholz Deutschland","status":"failed"},{"id":"235330","url":"https:\/\/fragdenstaat.de\/anfrage\/klimaschutz-und-klimaanpassungskonzepte-165\/","plz":"19348","city":"Perleberg","lat":53.0735816,"lon":11.8686511,"geoaddr":"19348 Perleberg Deutschland","status":"solved"},{"id":"235463","url":"https:\/\/fragdenstaat.de\/anfrage\/klimaschutz-und-klimaanpassungskonzepte-297\/","plz":"78045","city":"Villingen-Schwenningen","lat":48.06112155,"lon":8.5337581487,"geoaddr":"78045 Villingen-Schwenningen Deutschland","status":"failed"},{"id":"235364","url":"https:\/\/fragdenstaat.de\/anfrage\/klimaschutz-und-klimaanpassungskonzepte-199\/","plz":"52525","city":"Heinsberg","lat":51.06113795,"lon":6.1069129238,"geoaddr":"52525 Heinsberg Deutschland","status":"solved"},{"id":"235391","url":"https:\/\/fragdenstaat.de\/anfrage\/klimaschutz-und-klimaanpassungskonzepte-226\/","plz":"79301","city":"Emmendingen","lat":7.850993,"lon":48.1206565,"geoaddr":"79301 Emmendingen Deutschland","status":"failed"},{"id":"235536","url":"https:\/\/fragdenstaat.de\/anfrage\/klimaschutz-und-klimaanpassungskonzepte-371\/","plz":"67227","city":"Frankenthal","lat":49.5349331,"lon":8.3547483699,"geoaddr":"67227 Frankenthal Deutschland","status":"failed"},{"id":"235460","url":"https:\/\/fragdenstaat.de\/anfrage\/klimaschutz-und-klimaanpassungskonzepte-295\/","plz":"74523","city":"Schw\u00e4bisch","lat":49.1158346,"lon":9.7368621,"geoaddr":"74523 Schw\u00e4bisch Deutschland","status":"solved"},{"id":"235355","url":"https:\/\/fragdenstaat.de\/anfrage\/klimaschutz-und-klimaanpassungskonzepte-190\/","plz":"34497","city":"Korbach","lat":51.2690466,"lon":8.8566075,"geoaddr":"34497 Korbach Deutschland","status":"failed"},{"id":"235220","url":"https:\/\/fragdenstaat.de\/anfrage\/klimaschutz-und-klimaanpassungskonzepte-55\/","plz":"32756","city":"Detmold","lat":51.942523,"lon":8.870982,"geoaddr":"32756 Detmold Deutschland","status":"solved"},{"id":"235489","url":"https:\/\/fragdenstaat.de\/anfrage\/klimaschutz-und-klimaanpassungskonzepte-324\/","plz":"41460","city":"Neuss","lat":51.1965365,"lon":6.6961259,"geoaddr":"41460 Neuss Deutschland","status":"solved"},{"id":"235286","url":"https:\/\/fragdenstaat.de\/anfrage\/klimaschutz-und-klimaanpassungskonzepte-121\/","plz":"36037","city":"Fulda","lat":50.5594985,"lon":9.6863955,"geoaddr":"36037 Fulda Deutschland","status":"failed"},{"id":"235370","url":"https:\/\/fragdenstaat.de\/anfrage\/klimaschutz-und-klimaanpassungskonzepte-205\/","plz":"63736","city":"Aschaffenburg","lat":49.9740542,"lon":9.1493636,"geoaddr":"63736 Aschaffenburg Deutschland","status":"solved"},{"id":"235359","url":"https:\/\/fragdenstaat.de\/anfrage\/klimaschutz-und-klimaanpassungskonzepte-194\/","plz":"26919","city":"Brake","lat":53.3278152,"lon":8.4723555349,"geoaddr":"26919 Brake Deutschland","status":"solved"},{"id":"235228","url":"https:\/\/fragdenstaat.de\/anfrage\/klimaschutz-und-klimaanpassungskonzepte-63\/","plz":"55232","city":"Alzey,","lat":49.7429609,"lon":8.1104960758,"geoaddr":"55232 Alzey, Deutschland","status":"solved"},{"id":"235331","url":"https:\/\/fragdenstaat.de\/anfrage\/klimaschutz-und-klimaanpassungskonzepte-166\/","plz":"88212","city":"Ravensburg","lat":47.78756775,"lon":9.617136724,"geoaddr":"88212 Ravensburg Deutschland","status":"solved"},{"id":"235310","url":"https:\/\/fragdenstaat.de\/anfrage\/klimaschutz-und-klimaanpassungskonzepte-145\/","plz":"26789","city":"Leer","lat":53.2320581,"lon":7.4565853,"geoaddr":"26789 Leer Deutschland","status":"solved"},{"id":"235389","url":"https:\/\/fragdenstaat.de\/anfrage\/klimaschutz-und-klimaanpassungskonzepte-224\/","plz":"85560","city":"Ebersberg","lat":48.0765786,"lon":11.9647521,"geoaddr":"85560 Ebersberg Deutschland","status":"solved"},{"id":"235487","url":"https:\/\/fragdenstaat.de\/anfrage\/klimaschutz-und-klimaanpassungskonzepte-322\/","plz":"30169","city":"Hannover,","lat":52.36574685,"lon":9.7446052941,"geoaddr":"30169 Hannover, Deutschland","status":"solved"},{"id":"235221","url":"https:\/\/fragdenstaat.de\/anfrage\/klimaschutz-und-klimaanpassungskonzepte-56\/","plz":"32423","city":"Minden","lat":52.2815883,"lon":8.9112471341,"geoaddr":"32423 Minden Deutschland","status":"solved"},{"id":"235435","url":"https:\/\/fragdenstaat.de\/anfrage\/klimaschutz-und-klimaanpassungskonzepte-270\/","plz":"86620","city":"Neuburg","lat":53.9449473,"lon":11.5903337,"geoaddr":"86620 Neuburg Deutschland","status":"failed"},{"id":"235521","url":"https:\/\/fragdenstaat.de\/anfrage\/klimaschutz-und-klimaanpassungskonzepte-356\/","plz":"87435","city":"Kempten","lat":47.733333333,"lon":10.316666666,"geoaddr":"87435 Kempten Deutschland","status":"solved"},{"id":"235291","url":"https:\/\/fragdenstaat.de\/anfrage\/klimaschutz-und-klimaanpassungskonzepte-126\/","plz":"37083","city":"G\u00f6ttingen","lat":51.5272662,"lon":9.93936,"geoaddr":"37083 G\u00f6ttingen Deutschland","status":"failed"},{"id":"235323","url":"https:\/\/fragdenstaat.de\/anfrage\/klimaschutz-und-klimaanpassungskonzepte-158\/","plz":"37154","city":"Northeim","lat":51.7062257,"lon":9.9960757,"geoaddr":"37154 Northeim Deutschland","status":"solved"},{"id":"235495","url":"https:\/\/fragdenstaat.de\/anfrage\/klimaschutz-und-klimaanpassungskonzepte-330\/","plz":"10179","city":"Berlin","lat":52.5132312,"lon":13.4157452028,"geoaddr":"10179 Berlin Deutschland","status":"solved"},{"id":"235257","url":"https:\/\/fragdenstaat.de\/anfrage\/klimaschutz-und-klimaanpassungskonzepte-92\/","plz":"59494","city":"Soest","lat":51.57252465,"lon":8.1146490765,"geoaddr":"59494 Soest Deutschland","status":"solved"},{"id":"235380","url":"https:\/\/fragdenstaat.de\/anfrage\/klimaschutz-und-klimaanpassungskonzepte-215\/","plz":"88041","city":"Friedrichshafen","lat":47.661536,"lon":9.473899,"geoaddr":"88041 Friedrichshafen Deutschland","status":"solved"},{"id":"235205","url":"https:\/\/fragdenstaat.de\/anfrage\/klimaschutz-und-klimaanpassungskonzepte-40\/","plz":"46045","city":"Oberhausen","lat":51.479889,"lon":6.861795,"geoaddr":"46045 Oberhausen Deutschland","status":"solved"},{"id":"235497","url":"https:\/\/fragdenstaat.de\/anfrage\/klimaschutz-und-klimaanpassungskonzepte-332\/","plz":"00163","city":"63701","lat":49.97575,"lon":9.1478,"geoaddr":"00163 63701 Deutschland","status":"solved"},{"id":"235213","url":"https:\/\/fragdenstaat.de\/anfrage\/klimaschutz-und-klimaanpassungskonzepte-48\/","plz":"48653","city":"Coesfeld","lat":51.944301,"lon":7.174554,"geoaddr":"48653 Coesfeld Deutschland","status":"failed"},{"id":"235387","url":"https:\/\/fragdenstaat.de\/anfrage\/klimaschutz-und-klimaanpassungskonzepte-222\/","plz":"84125","city":"Dingolfing","lat":48.6300801,"lon":12.4977434,"geoaddr":"84125 Dingolfing Deutschland","status":"failed"},{"id":"235349","url":"https:\/\/fragdenstaat.de\/anfrage\/klimaschutz-und-klimaanpassungskonzepte-184\/","plz":"29525","city":"Uelzen","lat":52.9617068,"lon":10.5580016,"geoaddr":"29525 Uelzen Deutschland","status":"solved"},{"id":"235279","url":"https:\/\/fragdenstaat.de\/anfrage\/klimaschutz-und-klimaanpassungskonzepte-114\/","plz":"49661","city":"Cloppenburg","lat":52.8431588,"lon":8.0380453,"geoaddr":"49661 Cloppenburg Deutschland","status":"solved"},{"id":"235430","url":"https:\/\/fragdenstaat.de\/anfrage\/klimaschutz-und-klimaanpassungskonzepte-265\/","plz":"63885","city":"Miltenberg","lat":49.7017584,"lon":9.2559718,"geoaddr":"63885 Miltenberg Deutschland","status":"solved"},{"id":"235204","url":"https:\/\/fragdenstaat.de\/anfrage\/klimaschutz-und-klimaanpassungskonzepte-39\/","plz":"48143","city":"M\u00fcnster","lat":51.9612145,"lon":7.6289279,"geoaddr":"48143 M\u00fcnster Deutschland","status":"failed"},{"id":"235559","url":"https:\/\/fragdenstaat.de\/anfrage\/klimaschutz-und-klimaanpassungskonzepte-394\/","plz":"97070","city":"W\u00fcrzburg","lat":49.793488,"lon":9.9282247,"geoaddr":"97070 W\u00fcrzburg Deutschland","status":"failed"},{"id":"235229","url":"https:\/\/fragdenstaat.de\/anfrage\/klimaschutz-und-klimaanpassungskonzepte-64\/","plz":"26655","city":"Westerstede","lat":53.255381,"lon":7.9345199,"geoaddr":"26655 Westerstede Deutschland","status":"failed"},{"id":"235423","url":"https:\/\/fragdenstaat.de\/anfrage\/klimaschutz-und-klimaanpassungskonzepte-258\/","plz":"79537","city":"L\u00f6rrach","lat":7.6607218,"lon":47.6120896,"geoaddr":"79537 L\u00f6rrach Deutschland","status":"failed"},{"id":"235474","url":"https:\/\/fragdenstaat.de\/anfrage\/klimaschutz-und-klimaanpassungskonzepte-309\/","plz":"95631","city":"Wunsiedel","lat":50.0373241,"lon":12.0027278,"geoaddr":"95631 Wunsiedel Deutschland","status":"failed"},{"id":"235250","url":"https:\/\/fragdenstaat.de\/anfrage\/klimaschutz-und-klimaanpassungskonzepte-85\/","plz":"33102","city":"Paderborn","lat":51.7150125,"lon":8.7393082,"geoaddr":"33102 Paderborn Deutschland","status":"solved"},{"id":"235438","url":"https:\/\/fragdenstaat.de\/anfrage\/klimaschutz-und-klimaanpassungskonzepte-273\/","plz":"92657","city":"Neustadt","lat":49.3539802,"lon":8.1350021,"geoaddr":"92657 Neustadt Deutschland","status":"failed"},{"id":"235462","url":"https:\/\/fragdenstaat.de\/anfrage\/klimaschutz-und-klimaanpassungskonzepte-298\/","plz":"97404","city":"Schweinfurt","lat":50.0499945,"lon":10.233302,"geoaddr":"97404 Schweinfurt Deutschland","status":"failed"},{"id":"235519","url":"https:\/\/fragdenstaat.de\/anfrage\/klimaschutz-und-klimaanpassungskonzepte-354\/","plz":"34117","city":"Kassel","lat":51.3119692,"lon":9.4925701,"geoaddr":"34117 Kassel Deutschland","status":"solved"},{"id":"235201","url":"https:\/\/fragdenstaat.de\/anfrage\/klimaschutz-und-klimaanpassungskonzepte-36\/","plz":"47803","city":"Krefeld","lat":51.33404595,"lon":6.5590081635,"geoaddr":"47803 Krefeld Deutschland","status":"solved"},{"id":"235441","url":"https:\/\/fragdenstaat.de\/anfrage\/klimaschutz-und-klimaanpassungskonzepte-276\/","plz":"91205","city":"Lauf","lat":48.6485831,"lon":8.1292199,"geoaddr":"91205 Lauf Deutschland","status":"solved"},{"id":"235244","url":"https:\/\/fragdenstaat.de\/anfrage\/klimaschutz-und-klimaanpassungskonzepte-79\/","plz":"55218","city":"Ingelheim","lat":49.97602365,"lon":8.0572193848,"geoaddr":"55218 Ingelheim Deutschland","status":"failed"},{"id":"235561","url":"https:\/\/fragdenstaat.de\/anfrage\/klimaschutz-und-klimaanpassungskonzepte-396\/","plz":"99423","city":"Weimar","lat":50.97911985,"lon":11.3310731183,"geoaddr":"99423 Weimar Deutschland","status":"failed"},{"id":"235475","url":"https:\/\/fragdenstaat.de\/anfrage\/klimaschutz-und-klimaanpassungskonzepte-310\/","plz":"97067","city":"W\u00fcrzburg","lat":49.79245,"lon":9.932966,"geoaddr":"97067 W\u00fcrzburg Deutschland","status":"solved"},{"id":"235325","url":"https:\/\/fragdenstaat.de\/anfrage\/klimaschutz-und-klimaanpassungskonzepte-160\/","plz":"64711","city":"Erbach","lat":49.66319895,"lon":8.9937683544,"geoaddr":"64711 Erbach Deutschland","status":"failed"},{"id":"235347","url":"https:\/\/fragdenstaat.de\/anfrage\/klimaschutz-und-klimaanpassungskonzepte-182\/","plz":"14943","city":"Luckenwalde","lat":52.08479705,"lon":13.1687568247,"geoaddr":"14943 Luckenwalde Deutschland","status":"failed"},{"id":"235200","url":"https:\/\/fragdenstaat.de\/anfrage\/klimaschutz-und-klimaanpassungskonzepte-35\/","plz":"50667","city":"K\u00f6ln","lat":50.9388974,"lon":6.9790282,"geoaddr":"50667 K\u00f6ln Deutschland","status":"failed"},{"id":"235516","url":"https:\/\/fragdenstaat.de\/anfrage\/klimaschutz-und-klimaanpassungskonzepte-351\/","plz":"95015","city":"Hof","lat":50.316666666,"lon":11.916666666,"geoaddr":"95015 Hof Deutschland","status":"solved"},{"id":"235354","url":"https:\/\/fragdenstaat.de\/anfrage\/klimaschutz-und-klimaanpassungskonzepte-189\/","plz":"18437","city":"Stralsund","lat":54.3101787,"lon":13.0681397,"geoaddr":"18437 Stralsund Deutschland","status":"solved"},{"id":"235426","url":"https:\/\/fragdenstaat.de\/anfrage\/klimaschutz-und-klimaanpassungskonzepte-261\/","plz":"97933","city":"Tauberbischofsheim","lat":9.6627138,"lon":49.6229682,"geoaddr":"97933 Tauberbischofsheim Deutschland","status":"failed"},{"id":"235453","url":"https:\/\/fragdenstaat.de\/anfrage\/klimaschutz-und-klimaanpassungskonzepte-288\/","plz":"69036","city":"Heidelberg","lat":8.694724,"lon":49.4093582,"geoaddr":"69036 Heidelberg Deutschland","status":"solved"},{"id":"235167","url":"https:\/\/fragdenstaat.de\/anfrage\/klimaschutz-und-klimaanpassungskonzepte-2\/","plz":"14770","city":"Brandenburg","lat":52.4141332,"lon":12.5542618,"geoaddr":"14770 Brandenburg Deutschland","status":"solved"},{"id":"235249","url":"https:\/\/fragdenstaat.de\/anfrage\/klimaschutz-und-klimaanpassungskonzepte-84\/","plz":"57462","city":"Olpe","lat":51.03356645,"lon":7.8506366665,"geoaddr":"57462 Olpe Deutschland","status":"solved"},{"id":"235327","url":"https:\/\/fragdenstaat.de\/anfrage\/klimaschutz-und-klimaanpassungskonzepte-162\/","plz":"49082","city":"Osnabr\u00fcck","lat":52.24765135,"lon":8.0696503309,"geoaddr":"49082 Osnabr\u00fcck Deutschland","status":"failed"},{"id":"235538","url":"https:\/\/fragdenstaat.de\/anfrage\/klimaschutz-und-klimaanpassungskonzepte-373\/","plz":"90762","city":"F\u00fcrth","lat":49.47764655,"lon":10.9887769019,"geoaddr":"90762 F\u00fcrth Deutschland","status":"solved"},{"id":"235312","url":"https:\/\/fragdenstaat.de\/anfrage\/klimaschutz-und-klimaanpassungskonzepte-146\/","plz":"65549","city":"Limburg","lat":50.38711785,"lon":8.0593962408,"geoaddr":"65549 Limburg Deutschland","status":"failed"},{"id":"235399","url":"https:\/\/fragdenstaat.de\/anfrage\/klimaschutz-und-klimaanpassungskonzepte-234\/","plz":"72236","city":"Freudenstadt","lat":8.4111727,"lon":48.4637727,"geoaddr":"72236 Freudenstadt Deutschland","status":"solved"},{"id":"235413","url":"https:\/\/fragdenstaat.de\/anfrage\/klimaschutz-und-klimaanpassungskonzepte-248\/","plz":"93303","city":"Kelheim","lat":48.9187285,"lon":11.8727886,"geoaddr":"93303 Kelheim Deutschland","status":"failed"},{"id":"235169","url":"https:\/\/fragdenstaat.de\/anfrage\/klimaschutz-und-klimaanpassungskonzepte-4\/","plz":"03046","city":"Cottbus","lat":51.7608325,"lon":14.3320751,"geoaddr":"03046 Cottbus Deutschland","status":"solved"},{"id":"235486","url":"https:\/\/fragdenstaat.de\/anfrage\/klimaschutz-und-klimaanpassungskonzepte-320\/","plz":"14806","city":"Bad Belzig","lat":52.1423462,"lon":12.5847146569,"geoaddr":"14806 Bad Belzig Deutschland","status":"failed"},{"id":"235216","url":"https:\/\/fragdenstaat.de\/anfrage\/klimaschutz-und-klimaanpassungskonzepte-51\/","plz":"49074","city":"Osnabr\u00fcck","lat":52.2773994,"lon":8.0412102689,"geoaddr":"49074 Osnabr\u00fcck Deutschland","status":"solved"},{"id":"235381","url":"https:\/\/fragdenstaat.de\/anfrage\/klimaschutz-und-klimaanpassungskonzepte-216\/","plz":"79081","city":"Freiburg","lat":47.9960901,"lon":7.8494005,"geoaddr":"79081 Freiburg Deutschland","status":"solved"},{"id":"235179","url":"https:\/\/fragdenstaat.de\/anfrage\/klimaschutz-und-klimaanpassungskonzepte-14\/","plz":"23843","city":"Bad Oldesloe","lat":53.8053718,"lon":10.3803511052,"geoaddr":"23843 Bad Oldesloe Deutschland","status":"solved"},{"id":"235262","url":"https:\/\/fragdenstaat.de\/anfrage\/klimaschutz-und-klimaanpassungskonzepte-97\/","plz":"56410","city":"Montabaur,","lat":50.4305613,"lon":7.8284840953,"geoaddr":"56410 Montabaur, Deutschland","status":"solved"},{"id":"235541","url":"https:\/\/fragdenstaat.de\/anfrage\/klimaschutz-und-klimaanpassungskonzepte-376\/","plz":"56068","city":"Koblenz,","lat":50.3600331,"lon":7.5983743,"geoaddr":"56068 Koblenz, Deutschland","status":"solved"},{"id":"235215","url":"https:\/\/fragdenstaat.de\/anfrage\/klimaschutz-und-klimaanpassungskonzepte-50\/","plz":"41061","city":"M\u00f6nchengladbach","lat":51.200215,"lon":6.421396,"geoaddr":"41061 M\u00f6nchengladbach Deutschland","status":"failed"},{"id":"235544","url":"https:\/\/fragdenstaat.de\/anfrage\/klimaschutz-und-klimaanpassungskonzepte-379\/","plz":"87700","city":"Memmingen","lat":47.9866516,"lon":10.1813319,"geoaddr":"87700 Memmingen Deutschland","status":"failed"},{"id":"235232","url":"https:\/\/fragdenstaat.de\/anfrage\/klimaschutz-und-klimaanpassungskonzepte-67\/","plz":"54516","city":"Wittlich,","lat":49.9819569,"lon":6.8987325772,"geoaddr":"54516 Wittlich, Deutschland","status":"failed"},{"id":"235351","url":"https:\/\/fragdenstaat.de\/anfrage\/klimaschutz-und-klimaanpassungskonzepte-186\/","plz":"27283","city":"Verden","lat":52.9273269,"lon":9.2507064526,"geoaddr":"27283 Verden Deutschland","status":"solved"},{"id":"235396","url":"https:\/\/fragdenstaat.de\/anfrage\/klimaschutz-und-klimaanpassungskonzepte-231\/","plz":"73726","city":"Esslingen","lat":48.7427584,"lon":9.3071685,"geoaddr":"73726 Esslingen Deutschland","status":"solved"},{"id":"235272","url":"https:\/\/fragdenstaat.de\/anfrage\/klimaschutz-und-klimaanpassungskonzepte-107\/","plz":"92224","city":"Amberg","lat":49.4454211,"lon":11.858728,"geoaddr":"92224 Amberg Deutschland","status":"solved"},{"id":"235188","url":"https:\/\/fragdenstaat.de\/anfrage\/klimaschutz-und-klimaanpassungskonzepte-23\/","plz":"33602","city":"Bielefeld","lat":52.0215339,"lon":8.5358668,"geoaddr":"33602 Bielefeld Deutschland","status":"failed"},{"id":"235382","url":"https:\/\/fragdenstaat.de\/anfrage\/klimaschutz-und-klimaanpassungskonzepte-217\/","plz":"93404","city":"Cham","lat":49.2178194,"lon":12.6663832,"geoaddr":"93404 Cham Deutschland","status":"failed"},{"id":"235202","url":"https:\/\/fragdenstaat.de\/anfrage\/klimaschutz-und-klimaanpassungskonzepte-37\/","plz":"51373","city":"Leverkusen","lat":51.0744213,"lon":6.9972298155,"geoaddr":"51373 Leverkusen Deutschland","status":"failed"},{"id":"235424","url":"https:\/\/fragdenstaat.de\/anfrage\/klimaschutz-und-klimaanpassungskonzepte-259\/","plz":"71638","city":"Ludwigsburg","lat":48.8903187,"lon":9.2004763802,"geoaddr":"71638 Ludwigsburg Deutschland","status":"failed"},{"id":"235421","url":"https:\/\/fragdenstaat.de\/anfrage\/klimaschutz-und-klimaanpassungskonzepte-254\/","plz":"01453","city":"86884","lat":48.0514973,"lon":10.8737728,"geoaddr":"01453 86884 Deutschland","status":"failed"},{"id":"235509","url":"https:\/\/fragdenstaat.de\/anfrage\/klimaschutz-und-klimaanpassungskonzepte-344\/","plz":"91051","city":"Erlangen","lat":49.596388888,"lon":11.004444444,"geoaddr":"91051 Erlangen Deutschland","status":"solved"},{"id":"235177","url":"https:\/\/fragdenstaat.de\/anfrage\/klimaschutz-und-klimaanpassungskonzepte-12\/","plz":"23795","city":"Bad Segeberg","lat":52.5533629,"lon":13.1335785,"geoaddr":"23795 Bad Segeberg Deutschland","status":"failed"},{"id":"235295","url":"https:\/\/fragdenstaat.de\/anfrage\/klimaschutz-und-klimaanpassungskonzepte-130\/","plz":"21423","city":"Winsen","lat":53.3614375,"lon":10.2039376598,"geoaddr":"21423 Winsen Deutschland","status":"failed"},{"id":"235226","url":"https:\/\/fragdenstaat.de\/anfrage\/klimaschutz-und-klimaanpassungskonzepte-61\/","plz":"53474","city":"Bad Neuenahr-Ahrweiler,","lat":52.52019835,"lon":13.1856302055,"geoaddr":"53474 Bad Neuenahr-Ahrweiler, Deutschland","status":"solved"},{"id":"235289","url":"https:\/\/fragdenstaat.de\/anfrage\/klimaschutz-und-klimaanpassungskonzepte-124\/","plz":"38640","city":"Goslar","lat":51.9095677,"lon":10.4217900079,"geoaddr":"38640 Goslar Deutschland","status":"failed"},{"id":"235425","url":"https:\/\/fragdenstaat.de\/anfrage\/klimaschutz-und-klimaanpassungskonzepte-260\/","plz":"97748","city":"Karlstadt","lat":49.9616823,"lon":9.7655121,"geoaddr":"97748 Karlstadt Deutschland","status":"failed"},{"id":"235170","url":"https:\/\/fragdenstaat.de\/anfrage\/klimaschutz-und-klimaanpassungskonzepte-5\/","plz":"25746","city":"Heide","lat":54.1933706,"lon":9.1102411,"geoaddr":"25746 Heide Deutschland","status":"solved"},{"id":"235546","url":"https:\/\/fragdenstaat.de\/anfrage\/klimaschutz-und-klimaanpassungskonzepte-381\/","plz":"67433","city":"Neustadt","lat":49.35370485,"lon":8.1352456719,"geoaddr":"67433 Neustadt Deutschland","status":"solved"},{"id":"235245","url":"https:\/\/fragdenstaat.de\/anfrage\/klimaschutz-und-klimaanpassungskonzepte-80\/","plz":"58509","city":"L\u00fcdenscheid","lat":51.2250616,"lon":7.6144237831,"geoaddr":"58509 L\u00fcdenscheid Deutschland","status":"failed"},{"id":"235313","url":"https:\/\/fragdenstaat.de\/anfrage\/klimaschutz-und-klimaanpassungskonzepte-148\/","plz":"19370","city":"Parchim","lat":53.419565,"lon":11.8443953,"geoaddr":"19370 Parchim Deutschland","status":"failed"},{"id":"235369","url":"https:\/\/fragdenstaat.de\/anfrage\/klimaschutz-und-klimaanpassungskonzepte-204\/","plz":"91522","city":"Ansbach","lat":49.2962936,"lon":10.5616979411,"geoaddr":"91522 Ansbach Deutschland","status":"failed"},{"id":"235368","url":"https:\/\/fragdenstaat.de\/anfrage\/klimaschutz-und-klimaanpassungskonzepte-203\/","plz":"89070","city":"Ulm","lat":9.9934336,"lon":48.3974003,"geoaddr":"89070 Ulm Deutschland","status":"failed"},{"id":"235292","url":"https:\/\/fragdenstaat.de\/anfrage\/klimaschutz-und-klimaanpassungskonzepte-127\/","plz":"48529","city":"Nordhorn","lat":52.433195,"lon":7.0616658,"geoaddr":"48529 Nordhorn Deutschland","status":"solved"},{"id":"235412","url":"https:\/\/fragdenstaat.de\/anfrage\/klimaschutz-und-klimaanpassungskonzepte-247\/","plz":"76126","city":"Karlsruhe","lat":49.07972,"lon":8.53139,"geoaddr":"76126 Karlsruhe Deutschland","status":"solved"},{"id":"235511","url":"https:\/\/fragdenstaat.de\/anfrage\/klimaschutz-und-klimaanpassungskonzepte-346\/","plz":"79095","city":"Freiburg","lat":47.6844868,"lon":8.0885441,"geoaddr":"79095 Freiburg Deutschland","status":"failed"},{"id":"235440","url":"https:\/\/fragdenstaat.de\/anfrage\/klimaschutz-und-klimaanpassungskonzepte-275\/","plz":"04855","city":"Torgau","lat":51.556936,"lon":12.992703,"geoaddr":"04855 Torgau Deutschland","status":"failed"},{"id":"235358","url":"https:\/\/fragdenstaat.de\/anfrage\/klimaschutz-und-klimaanpassungskonzepte-193\/","plz":"37269","city":"Eschwege","lat":51.1882947,"lon":10.0526479,"geoaddr":"37269 Eschwege Deutschland","status":"failed"},{"id":"235454","url":"https:\/\/fragdenstaat.de\/anfrage\/klimaschutz-und-klimaanpassungskonzepte-289\/","plz":"97615","city":"Bad Neustadt","lat":50.322637,"lon":10.2164873,"geoaddr":"97615 Bad Neustadt Deutschland","status":"solved"},{"id":"235319","url":"https:\/\/fragdenstaat.de\/anfrage\/klimaschutz-und-klimaanpassungskonzepte-154\/","plz":"66559","city":"Ottweiler","lat":49.4030447,"lon":7.1631469,"geoaddr":"66559 Ottweiler Deutschland","status":"failed"},{"id":"235219","url":"https:\/\/fragdenstaat.de\/anfrage\/klimaschutz-und-klimaanpassungskonzepte-54\/","plz":"47533","city":"Kleve","lat":51.782073,"lon":6.1384954,"geoaddr":"47533 Kleve Deutschland","status":"failed"},{"id":"235434","url":"https:\/\/fragdenstaat.de\/anfrage\/klimaschutz-und-klimaanpassungskonzepte-269\/","plz":"74819","city":"Mosbach","lat":9.1460205,"lon":49.3521085,"geoaddr":"74819 Mosbach Deutschland","status":"solved"}]